"x","y","franchisee","on_street","cross_street_1","cross_street_2","borough","pole_type","bid_advisory","historic_advisory","park_advisory","school_advisory","zipcode","community_board","council_district","scenic_landmark_advisory"
"991172.0000000","162849.0000000","Mobilitie II","Dahill Road","61st Street","24th Avenue","Brooklyn","CITY",,,,,"11204","311","44",
"990161.0000000","162641.0000000","Mobilitie II","23rd Avenue","64th Street","65th Street","Brooklyn","CITY",,,,,"11204","311","44",
"989703.0000000","161765.0000000","Mobilitie I","Avenue O","W 6th Street","W 7th Street","Brooklyn","CITY",,,,,"11204","311","44",
"988571.0000000","160579.0000000","Extenet II","W 11th St","Ave P","Kings Hwy","Brooklyn","UTILITY",,,,,"11223","311","44",
"988461.0000000","159838.0000000","Mobilitie I","Quentin Road","W 12th Street","W 11th Street","Brooklyn","CITY",,,,,"11223","311","44",
"987829.0000000","160458.0000000","Mobilitie I","Stillwell Av","Avenue P","Kings Hwy","Brooklyn","UTILITY",,,,"LUCRETIA MARCIGLIANO CAMPUS","11223","311","44",
"990243.0000000","169616.0000000","Mobilitie II","Dahill Road","43rd Street","44th Street","Brooklyn","CITY",,,,,"11218","312","44",
"984417.0000000","169605.0000000","ZenFi","57 St","12 Av","11 Av","Brooklyn","UTILITY",,,,,"11219","312","44",
"986321.0000000","170442.0000000","ExteNet I","13th Ave","50th St","49th St","Brooklyn","CITY",,,,,"11219","312","44",
"987621.0000000","169659.0000000","ExteNet I","15th Ave","49th St","Rabbi Weissmandl Way","Brooklyn","CITY",,,,,"11219","312","44",
"987173.0000000","170350.0000000","ExteNet I","14th Ave","48th St","49th St","Brooklyn","CITY",,,,,"11219","312","44",
"985539.0000000","170985.0000000","Extenet II","50th St","12th Ave","11th Ave","Brooklyn","CITY",,,,,"11219","312","44",
"986961.0000000","171258.0000000","Extenet II","13th Ave","46th St","45th St","Brooklyn","CITY",,,,,"11219","312","44",
"984857.0000000","168601.0000000","Mobilitie II","13th Avenue","59th Street","58th Street","Brooklyn","CITY",,,,,"11219","312","44",
"985547.0000000","170373.0000000","Mobilitie II","52nd Street","New Utrecht Avenue","12th Avenue","Brooklyn","CITY",,,,,"11219","312","44",
"986442.0000000","166917.0000000","Mobilitie II","16th Avenue","60th Street","61st Street","Brooklyn","CITY",,,,,"11219","312","44",
"986477.0000000","171895.0000000","Mobilitie I","12th Ave","45th St","46th St","Brooklyn","UTILITY",,,,,"11219","312","44",
"985661.0000000","172207.0000000","Mobilitie II","11th Ave","46th St","47th St","Brooklyn","CITY",,,,,"11219","312","44",
"988164.0000000","169091.0000000","Mobilitie II","16th Ave","50th St","49th St","Brooklyn","CITY",,,,,"11219","312","44",
"986364.0000000","169328.0000000","Mobilitie II","14th Ave","53rd St","54th St","Brooklyn","CITY",,,,,"11219","312","44",
"993797.0000000","162360.0000000","Mobilitie II","Avenue O","E 8th Street","E 9th Street","Brooklyn","CITY",,,,,"11230","312","44",
"991204.0000000","167368.0000000","Mobilitie I","Avenue I","E 2nd Street","E 3rd Street","Brooklyn","CITY",,,,,"11230","312","44",
"989886.0000000","168603.0000000","Mobilitie II","18th Ave","47th St","46th St","Brooklyn","CITY",,,,,"11230","312","44",
"989654.0000000","164467.0000000","Mobilitie II","21st Avenue","60th Street","59th Street","Brooklyn","CITY",,,,,"11204","312","44",
"988431.0000000","165433.0000000","Mobilitie II","19th Avenue","60th Street","59th Street","Brooklyn","CITY",,,,,"11204","312","44",
"988991.0000000","164977.0000000","Mobilitie II","60th Street","20th Avenue","19th Avenue","Brooklyn","CITY",,,,,"11204","312","44",
"987500.0000000","168168.0000000","Mobilitie I","16th Avenue","54th Street","53rd Street","Brooklyn","CITY",,,,,"11204","312","44",
"990425.0000000","168028.0000000","Mobilitie I","19th Avenue","Dahill Road","48th Street","Brooklyn","CITY",,,,,"11204","312","44",
"988426.0000000","168021.0000000","Mobilitie II","17th Ave","52nd St","53rd St","Brooklyn","CITY",,,,,"11204","312","44",
"987537.0000000","166804.0000000","Mobilitie II","17th Ave","58th St","57th St","Brooklyn","CITY",,,,,"11204","312","44",
"993467.0000000","159921.0000000","ZenFi","Ocean Parkway","Kings Highway","Avenue R","Brooklyn","CITY",,,"Ocean Parkway Malls",,"11223","315","44","Ocean Parkway"
"994795.0000000","160497.0000000","ZenFi","Coney Island Avenue","Kings Highway","Avenue R","Brooklyn","CITY","Kings Highway BID",,,,"11223","315","44",
"991862.0000000","170076.0000000","Extenet II","Ocean Pkwy","Ave F","18th Ave","Brooklyn","CITY",,,,,"11218","314","44",
"991158.0000000","169466.0000000","Extenet II","18th Ave","E 3rd St","E 4th St","Brooklyn","CITY",,,,,"11218","314","44",
"995186.0000000","167219.0000000","ExteNet I","E 16th St","Avenue J","Avenue I","Brooklyn","CITY",,,,,"11230","314","44",
"994230.0000000","166916.0000000","Mobilitie II","Avenue J","E 12th Street","E 13th Street","Brooklyn","CITY",,,,,"11230","314","44",
"991271.0000000","168220.0000000","Mobilitie II","Foster Avenue","E 3rd Street","Seton Place","Brooklyn","CITY",,,,,"11230","314","44",
"995118.0000000","166205.0000000","Mobilitie II","Avenue K","E 15th Street","E 16th Street","Brooklyn","CITY",,,,,"11230","314","44",
"995189.0000000","165328.0000000","Mobilitie II","Avenue L","E 15th Street","E 14th Street","Brooklyn","CITY",,,,,"11230","314","44",
"995829.0000000","164951.0000000","Mobilitie I","E 17th Street","Bay Avenue","Chestnut Avenue","Brooklyn","CITY",,,,,"11230","314","44",
"1006208.0000000","178674.0000000","Mobilitie I","E 93rd St","Kings Hwy","Wilmohr St","Brooklyn","UTILITY",,,,,"11212","317","41",
"1005187.0000000","181189.0000000","Mobilitie II","Rutland Rd","E 96th St","Rockaway Parkway","Brooklyn","CITY",,,,,"11212","317","41",
"1006462.0000000","179196.0000000","Mobilitie II","Lenox Rd","E 95th St","E 96th St","Brooklyn","CITY",,,,,"11212","317","41",
"1005447.0000000","180388.0000000","Mobilitie II","Winthrop St","E 95th St","E 96th St","Brooklyn","CITY",,,,,"11212","317","41",
"1005588.0000000","178090.0000000","Mobilitie II","Remsen Avenue","E 58th Street","Lenox Road","Brooklyn","CITY",,,,,"11203","317","41",
"1003937.0000000","179190.0000000","Mobilitie II","Winthrop Street","E 52nd Street","E 53rd Street","Brooklyn","CITY",,,,"WINTHROP CAMPUS","11203","317","41",
"1004975.0000000","176276.0000000","Mobilitie II","Snyder Avenue","E 55th Street","E 56th Street","Brooklyn","CITY",,,,,"11203","317","41",
"1002058.0000000","178359.0000000","Extenet II","Clarkson Ave","E 45th St","Troy Ave","Brooklyn","UTILITY",,,,,"11203","317","41",
"1003038.0000000","176787.0000000","Crown Castle NG","E 48th St","Church Ave","Linden Blvd","Brooklyn","UTILITY",,,,,"11203","317","41",
"1004471.0000000","179236.0000000","Mobilitie II","Winthrop Street","E 54 Street","Remsen Avenue","Brooklyn","CITY",,,,,"11203","317","41",
"1003418.0000000","178079.0000000","Mobilitie II","Utica Ave","Lennox Ave","Clarkson Ave","Brooklyn","CITY",,,,,"11203","317","41",
"1002734.0000000","177307.0000000","Mobilitie I","Schenectady Ave","Linden Blvd","Church Ave","Brooklyn","UTILITY",,,,"PS 135","11203","317","41",
"1009577.0000000","181827.0000000","Mobilitie II","Blake Avenue","Rockaway Avenue","Mother Gaston Boulevard","Brooklyn","CITY",,,,,"11212","316","41",
"1006872.0000000","181927.0000000","Mobilitie II","Sutter Avenue","Grafton Street","Legion Street","Brooklyn","CITY",,,,,"11212","316","41",
"1011296.0000000","181064.0000000","Mobilitie II","Powell Street","Livonia Avenue","Dumont Avenue","Brooklyn","CITY",,,,,"11212","316","41",
"1007912.0000000","182130.0000000","Mobilitie II","Sutter Avenue","Herzl Street","Amboy Street","Brooklyn","CITY",,,,,"11212","316","41",
"1009843.0000000","182939.0000000","Mobilitie II","Belmont Ave","Watkins St","Osborn St","Brooklyn","CITY",,,,,"11212","316","41",
"1010517.0000000","182642.0000000","Mobilitie II","Sutter Ave","Christopher Ave","Sackman St","Brooklyn","CITY",,,,,"11212","316","41",
"1009250.0000000","183292.0000000","Mobilitie II","Pitkin Ave","Thatford Ave","Rockaway Ave","Brooklyn","CITY","Pitkin Avenue BID",,,,"11212","316","41",
"1009446.0000000","181206.0000000","Mobilitie II","Rockaway Ave","Dumont Ave","Livonia Ave","Brooklyn","CITY",,,,,"11212","316","41",
"1005672.0000000","181691.0000000","Mobilitie II","Sutter Ave","E 98th St","Ralph Ave","Brooklyn","CITY",,,,,"11212","316","41",
"1007288.0000000","184271.0000000","Mobilitie II","Saratoga Avenue","Prospect Place","Park Place","Brooklyn","CITY",,,,,"11233","316","41",
"1008070.0000000","187577.0000000","Mobilitie II","Thomas S Boyland Street","Marion Street","Chauncey Street","Brooklyn","CITY",,,"Marion Hopkinson Playground",,"11233","316","41",
"1008913.0000000","185650.0000000","ExteNet I","Atlantic Ave","Rockaway Ave","Pacific St","Brooklyn","CITY",,,,,"11233","316","41",
"1006543.0000000","183994.0000000","ExteNet I","Howard Ave","Park Pl","Sterling Pl","Brooklyn","CITY",,,,,"11233","316","41",
"1008114.0000000","184143.0000000","ExteNet I","Eastern Pkwy","Thomas S Boyland St","Prospect Pl","Brooklyn","CITY",,,,,"11233","316","41",
"1007063.0000000","189276.0000000","Mobilitie II","Saratoga Ave","Hancock St","Halsey St","Brooklyn","CITY",,,,,"11233","316","41",
"1003888.0000000","181580.0000000","Mobilitie II","Crown Street","Ford Street","Rochester Avenue","Brooklyn","CITY",,,,,"11213","309","41",
"1000910.0000000","180142.0000000","Extenet II","Albany Ave","Maple St","Midwood St","Brooklyn","UTILITY",,,,,"11203","309","41",
"1003233.0000000","180200.0000000","Mobilitie II","Midwood St","Utica Ave","E 48th St","Brooklyn","CITY",,,,,"11203","309","41",
"1005010.0000000","184110.0000000","ExteNet I","Buffalo Ave","Park Pl","Sterling Pl","Brooklyn","CITY",,,,,"11233","308","41",
"1004940.0000000","183152.0000000","ExteNet I","Buffalo Ave","Lincoln Pl","Eastern Pkwy","Brooklyn","CITY",,,,,"11233","308","41",
"1005825.0000000","184702.0000000","Mobilitie II","Ralph Ave","St. Marks","Prospect Pl","Brooklyn","CITY",,,,,"11233","308","41",
"1005886.0000000","185591.0000000","Mobilitie II","Ralph Ave","Pacific St","Dean St","Brooklyn","CITY",,,,,"11233","308","41",
"1005778.0000000","184045.0000000","Mobilitie II","Ralph Ave","Park Pl","Sterling Pl","Brooklyn","CITY",,,,,"11233","308","41",
"1004358.0000000","190840.0000000","Mobilitie II","Patchen Avenue","Lexington Avenue","Greene Avenue","Brooklyn","CITY",,,,,"11221","303","41",
"1005519.0000000","189317.0000000","Mobilitie I","Ralph Avenue","Jefferson Avenue","Hancock St","Brooklyn","CITY",,,,,"11221","303","41",
"1005317.0000000","190649.0000000","Mobilitie I","Ralph Avenue","Quincy Avenue","Gates Ave","Brooklyn","CITY",,,,,"11221","303","41",
"1005400.0000000","190122.0000000","Mobilitie II","Ralph Ave","Monroe St","Madison St","Brooklyn","CITY",,,,,"11221","303","41",
"1007212.0000000","187995.0000000","Mobilitie II","Saratoga Avenue","Bainbridge Street","Decatur Street","Brooklyn","CITY",,,,,"11233","303","41",
"1004925.0000000","187217.0000000","ExteNet I","Patchen Ave","Bainbridge St","Fulton Ave","Brooklyn","CITY",,,,,"11233","303","41",
"1005843.0000000","187178.0000000","Mobilitie I","Ralph Avenue","Marion Street","Sumpter St","Brooklyn","CITY",,,,"PS 40 GEORGE W CARVER","11233","303","41",
"1009723.0000000","183872.0000000","Mobilitie I","Glenmore Avenue","Watkins Street","Mother Gaston Boulevard","Brooklyn","CITY",,,,"BROWNSVILLE COLLABORATIVE MIDDLE SCHOOL","11212","316","37",
"1008898.0000000","187097.0000000","ExteNet I","Rockaway Ave","MacDougal St","Hull St","Brooklyn","CITY",,,,,"11233","316","37",
"1009790.0000000","185705.0000000","Mobilitie II","Eastern Parkway Extension","Atlantic Ave","Herkimer St","Brooklyn","CITY",,,,,"11233","316","37",
"1009701.0000000","186467.0000000","Mobilitie II","Mother Gastin Blvd","Truxton St","Somer St","Brooklyn","CITY",,,,,"11233","316","37",
"1019730.0000000","188361.0000000","ZenFi","Crescent St","Fulton St","Atlantic Av","Brooklyn","UTILITY",,,,,"11208","305","37",
"1020118.0000000","186501.0000000","ZenFi","Crescent St","Liberty Av","Hill St","Brooklyn","UTILITY",,,,,"11208","305","37",
"1022390.0000000","186252.0000000","Mobilitie I","Glenmore Ave","Drew St","Ruby St","Brooklyn","UTILITY",,,,,"11208","305","37",
"1020400.0000000","187489.0000000","Mobilitie II","Autumn Avenue","Glen Street","Atlantic Avenue","Brooklyn","CITY",,,,,"11208","305","37",
"1018463.0000000","187072.0000000","Mobilitie II","S Conduit Avenue","Fountain Avenue","Logan Street","Brooklyn","CITY",,,,,"11208","305","37",
"1019887.0000000","190522.0000000","Crown Castle NG","Autumn Ave","Jamaica Ave","Etna St","Brooklyn","UTILITY",,,,,"11208","305","37",
"1019480.0000000","189617.0000000","Crown Castle NG","Etna St","Crescent St","Hemlock St","Brooklyn","UTILITY",,,,,"11208","305","37",
"1022202.0000000","186698.0000000","Mobilitie I","Liberty Avenue","Drew Street","Ruby St","Queens","CITY",,,,,"11208","305","37",
"1021768.0000000","186237.0000000","Mobilitie I","Glenmore Avenue","Eldert Avenue","Forbell St","Brooklyn","CITY",,,,,"11208","305","37",
"1019907.0000000","187620.0000000","Mobilitie I","Atlantic Avenue","Crescent Avenue","Autumn Ave","Brooklyn","CITY",,,,,"11208","305","37",
"1018527.0000000","185632.0000000","Mobilitie I","Glenmore Avenue","Logan Street","Fountain Ave","Brooklyn","CITY",,,,,"11208","305","37",
"1016539.0000000","186356.0000000","Mobilitie I","Atlantic Avenue","Linwood Street","Essex St","Brooklyn","CITY",,,,,"11208","305","37",
"1021120.0000000","186600.0000000","Mobilitie II","Liberty Ave","Sheridan Ave","Grant Ave","Brooklyn","CITY",,,,,"11208","305","37",
"1021223.0000000","187224.0000000","Mobilitie I","Mckinley Ave","Grant Ave","Sheridan Ave","Brooklyn","UTILITY",,,,,"11208","305","37",
"1019205.0000000","186234.0000000","Mobilitie I","Liberty Ave","Chesnut St","Doscher St","Brooklyn","UTILITY",,,,,"11208","305","37",
"1014037.0000000","186203.0000000","ZenFi","Miller Av","Fulton St","Atlantic Av","Brooklyn","UTILITY",,,,,"11207","305","37",
"1013652.0000000","185513.0000000","ZenFi","Wyona St","Atlantic Av","Liberty Av","Brooklyn","UTILITY",,,,,"11207","305","37",
"1011055.0000000","185624.0000000","Mobilitie II","Van Sinderen Avenue","Atlantic Avenue","Herkimer Street","Brooklyn","CITY",,,,,"11207","305","37",
"1015183.0000000","185888.0000000","Mobilitie I","Atlantic Avenue","Barbey Street","Jerome St","Brooklyn","CITY",,,,,"11207","305","37",
"1014445.0000000","185696.0000000","Mobilitie I","Atlantic Avenue","Van Siclen Avenue","Hendrix St","Brooklyn","CITY",,,,,"11207","305","37",
"1013255.0000000","185080.0000000","Mobilitie I","Liberty Ave","New Jersey Ave","Vermont St","Brooklyn","UTILITY",,,,,"11207","305","37",
"1015844.0000000","186204.0000000","Mobilitie I","Atlantic Ave","Ashford St","Warwick St","Brooklyn","UTILITY",,,,,"11207","305","37",
"1011436.0000000","184722.0000000","Mobilitie II","Liberty Ave","Snediker Ave","Hinsdale St","Brooklyn","CITY","East Brooklyn BID",,,,"11207","305","37",
"1012666.0000000","186273.0000000","Mobilitie II","Pennsylvania Ave","Jamaica Ave","Fulton St","Brooklyn","CITY",,,,,"11207","305","37",
"1007099.0000000","195595.0000000","Crown Castle NG","Stanhope St","Wyckoff Ave","St Nicholas Ave","Brooklyn","UTILITY",,,,,"11237","304","37",
"1005598.0000000","194874.0000000","Mobilitie II","Knickerbocker Avenue","Hart Street","Dekalb Aveue","Brooklyn","CITY",,,,,"11237","304","37",
"1009930.0000000","191639.0000000","ExteNet I","Knickerbocker Ave","Eldert St","Halsey St","Brooklyn","CITY",,,,,"11237","304","37",
"1008922.0000000","194105.0000000","Mobilitie I","Wyckoff Street","Palmetto Street","Madison St","Brooklyn","CITY",,,,,"11237","304","37",
"1008948.0000000","193277.0000000","Mobilitie II","Irving Ave","Madison St","Putnman Ave","Brooklyn","CITY",,,,,"11237","304","37",
"1009576.0000000","192806.0000000","Mobilitie II","Irving Ave","Jefferson Ave","Hancock St","Brooklyn","CITY",,,,,"11237","304","37",
"1006225.0000000","194405.0000000","Mobilitie II","Knickerbocker Ave","Stanhope St","Himrod St","Brooklyn","CITY",,,,,"11237","304","37",
"1007184.0000000","193162.0000000","Mobilitie II","Grove St","Wilson Ave","Knickerbocker Ave","Brooklyn","CITY",,,,,"11237","304","37",
"1006243.0000000","195316.0000000","Mobilitie I","Dekalb Av","Irving Av","Wyckoff Av","Brooklyn","UTILITY",,,,,"11237","304","37",
"1007042.0000000","194708.0000000","Mobilitie I","Harman St","Irving Av","Wyckoff Av","Brooklyn","UTILITY",,,,,"11237","304","37",
"1011210.0000000","191528.0000000","Mobilitie I","Cooper St","Irving Av","Knickerbocker Ave","Brooklyn","UTILITY",,,,,"11237","304","37",
"1009153.0000000","190495.0000000","Mobilitie I","Central Avenue","Eldert Street","Covert St","Brooklyn","CITY",,,,"EVERGREEN MIDDLE SCHOOL FOR URBAN EXPLORATION","11207","304","37",
"1008377.0000000","189458.0000000","Mobilitie I","Bushwick Avenue","Eldert Street","Covert St","Brooklyn","CITY",,,,,"11207","304","37",
"1007902.0000000","191426.0000000","Mobilitie II","Central Avenue","Putnam Avenue","Cornelia Street","Brooklyn","CITY",,,,,"11221","304","37",
"1006154.0000000","194409.0000000","Crown Castle NG","Knickerbocker Ave","Stanhope St","Stockholm St","Brooklyn","CITY",,,,,"11221","304","37",
"1008745.0000000","191689.0000000","Mobilitie I","Wilson Avenue","Jefferson Avenue","Hancock St","Brooklyn","CITY",,,,,"11221","304","37",
"1041630.0000000","209312.0000000","Mobilitie I","Utopia Pkwy","Booth Memorial Ave","182nd St","Queens","UTILITY",,,,"FRANCIS LEWIS HIGH SCHOOL","11365","411","20",
"1031717.0000000","217676.0000000","Mobilitie II","Northern Boulevard","Leavitt Street","Union Street","Queens","CITY",,,,,"11354","407","20",
"1032293.0000000","221141.0000000","Mobilitie II","Union Street","28th Avenue","26th Avenue","Queens","CITY",,,,,"11354","407","20",
"1036405.0000000","218814.0000000","Mobilitie I","153rd Street","34th Avenue","35th Avenue","Queens","CITY",,,,,"11354","407","20",
"1034337.0000000","217536.0000000","Mobilitie I","38th Avenue","147th Street","Parsons Boulevard","Queens","CITY",,,,,"11354","407","20",
"1033232.0000000","222288.0000000","Mobilitie I","144th Place","Willets Point Boulevard","25th Road","Queens","CITY",,,,,"11354","407","20",
"1030596.0000000","216517.0000000","Mobilitie I","Prince St","37th Ave","38th Ave","Queens","UTILITY",,,,,"11354","407","20",
"1031154.0000000","217981.0000000","Mobilitie I","Linden Pl","35th Ave","34th Ave","Queens","UTILITY",,,,,"11354","407","20",
"1037863.0000000","214994.0000000","Mobilitie II","45th Avenue","160th Street","159th Street","Queens","CITY",,,,,"11358","407","20",
"1038901.0000000","214845.0000000","Mobilitie I","164th St","45th Ave","46th Ave","Queens","UTILITY",,,,,"11358","407","20",
"1032735.0000000","211174.0000000","Mobilitie I","Booth Memorial Ave","141st St","Main St","Queens","UTILITY",,,,,"11355","407","20",
"1032570.0000000","209954.0000000","Mobilitie II","Main Street","Horace Harding Expressway","60th Avenue","Queens","CITY",,,,,"11355","407","20",
"1034281.0000000","215486.0000000","Mobilitie II","Parsons Boulevard","Ash Avenue","Franklin Avenue","Queens","CITY",,,,,"11355","407","20",
"1031574.0000000","210955.0000000","Mobilitie I","58th Avenue","136th Street","138th Street","Queens","CITY",,,,"PS 120","11355","407","20",
"1029725.0000000","213265.0000000","Mobilitie II","131st St","Avery Ave","Fowler Ave","Queens","CITY",,,,,"11355","407","20",
"997362.0000000","177579.0000000","Mobilitie II","Rogers Avenue","Lenox Road","Clarkson Avenue","Brooklyn","CITY",,,,,"11226","317","40",
"999012.0000000","176407.0000000","ZenFi","Church Avenue","New York Avenue","East 32nd Street","Brooklyn","CITY",,,,,"11226","317","40",
"998505.0000000","176754.0000000","Mobilitie II","Martense Street","Fairview Pl","Raleigh Place","Brooklyn","CITY",,,,,"11226","317","40",
"998169.0000000","177581.0000000","Mobilitie II","Nostrand Avenue","Lenox Road","Linden Blvd","Brooklyn","CITY",,,,,"11226","317","40",
"996793.0000000","176328.0000000","Mobilitie II","Church Ave","Woods Pl","Veronica Pl","Brooklyn","CITY",,,,,"11226","317","40",
"994611.0000000","179905.0000000","Extenet II","Lincoln Rd","Ocean Ave","Parkside Dr","Brooklyn","CITY",,,,,"11225","309","40",
"995151.0000000","180057.0000000","Extenet II","Washington Ave","Lincoln St","Flatbush Ave","Brooklyn","CITY",,,"GREENSTREET",,"11225","309","40",
"996326.0000000","178843.0000000","Mobilitie II","Bedford Avenue","Hawthorne Street","Fenimore Street","Brooklyn","CITY",,,,,"11225","309","40",
"1000080.0000000","180737.0000000","Mobilitie II","Kingston Ave","Lefferts Ave","E New York Ave","Brooklyn","CITY",,,,,"11225","309","40",
"997845.0000000","180897.0000000","Mobilitie II","Nostrand Ave","Sterling St","Empire Blvd","Brooklyn","CITY",,,,,"11225","309","40",
"1001001.0000000","179099.0000000","Crown Castle NG","Albany Ave","Hawthorne St","Winthrop St","Brooklyn","UTILITY",,,,,"11203","309","40",
"999867.0000000","178810.0000000","Mobilitie II","Winthrop St","Brooklyn Ave","Kingston Ave","Brooklyn","CITY",,,,,"11203","309","40",
"992370.0000000","174829.0000000","ZenFi","Coney Island Avenue","Church Avenue","Caton Avenue","Brooklyn","CITY","Church Avenue BID",,,,"11218","314","40",
"996754.0000000","172321.0000000","ZenFi","Flatbush Avenue","Newkirk Avenue","Ditmas Avenue","Brooklyn","CITY",,,,,"11226","314","40",
"995482.0000000","177281.0000000","ZenFi","Flatbush Avenue","Caton Avenue","Woodruff Avenue","Brooklyn","CITY","Flatbush Avenue BID",,,,"11226","314","40",
"995805.0000000","175532.0000000","ExteNet I","Flatbush Ave","Snyder Ave","Albemarle Rd","Brooklyn","CITY","Flatbush Avenue BID",,,,"11226","314","40",
"995033.0000000","174200.0000000","ExteNet I","Beverley Rd","E 19th St","Ocean Ave","Brooklyn","CITY",,,,,"11226","314","40",
"995142.0000000","171246.0000000","ExteNet I","Newkirk Ave","E 18th St","E 17th St","Brooklyn","CITY",,,,,"11226","314","40",
"993891.0000000","177356.0000000","Extenet II","Parkside Ave","Parade Pl","St Pauls Pl","Brooklyn","CITY",,,,,"11226","314","40",
"992819.0000000","176800.0000000","Extenet II","Parkside Ave","Park Circle","Parade Pl","Brooklyn","CITY",,,,,"11226","314","40",
"995316.0000000","174181.0000000","Extenet II","Beverley Rd","Ocean Ave","E 19th St","Brooklyn","CITY",,,,,"11226","314","40",
"996480.0000000","176325.0000000","Extenet II","Bedford Ave","Church Ave","Martense St","Brooklyn","CITY",,,,,"11226","314","40",
"995158.0000000","173293.0000000","Crown Castle NG","E 19th St","Cortelyou Rd","Dorchester Rd","Brooklyn","CITY",,,,,"11226","314","40",
"994373.0000000","176550.0000000","Mobilitie II","Caton Avenue","E 18th Street","E 17th Street","Brooklyn","CITY",,,,,"11226","314","40",
"996383.0000000","174834.0000000","Mobilitie I","Tilden Avenue","E 22nd Street","Bedford Avenue","Brooklyn","CITY",,,,,"11226","314","40",
"994875.0000000","177264.0000000","Mobilitie I","Ocean Avenue","Crooke Avenue","Woodruff Avenue","Brooklyn","CITY",,,,,"11226","314","40",
"994142.0000000","172937.0000000","Mobilitie II","Cortelyou Rd","Marlborough Rd","E 16th St","Brooklyn","CITY",,,,,"11226","314","40",
"995885.0000000","176226.0000000","Mobilitie II","Church Ave","Flatbush Ave","Bedford Ave","Brooklyn","CITY",,,,,"11226","314","40",
"994460.0000000","170300.0000000","Extenet II","Marlborough Rd","Foster Ave","Newkirk Ave","Brooklyn","CITY",,,,,"11230","314","40",
"992233.0000000","168821.0000000","Extenet II","Ocean Pkwy","Foster Ave","Ave H","Brooklyn","CITY",,,,,"11230","314","40",
"1041753.0000000","188320.0000000","Crown Castle NG","Sutphin Blvd","115th Dr","115th Rd","Queens","UTILITY",,,,,"11436","412","28",
"1039392.0000000","186105.0000000","Crown Castle NG","140th St","Foch Blvd","120th Ave","Queens","UTILITY",,,,,"11436","412","28",
"1040199.0000000","185526.0000000","Crown Castle NG","142nd Pl","120th Ave","123rd Ave","Queens","UTILITY",,,,,"11436","412","28",
"1042984.0000000","184435.0000000","Crown Castle NG","150th St","Rockaway Blvd","Sutter Ave","Queens","UTILITY",,,,,"11436","412","28",
"1039231.0000000","185588.0000000","Mobilitie II","120th Avenue","Van Wyck Expressway","140th Street","Queens","CITY",,,"Playground One Forty",,"11436","412","28",
"1040161.0000000","184972.0000000","Crown Castle NG","Rockaway Blvd","142nd St","142nd St","Queens","UTILITY",,,,,"11436","412","28",
"1041045.0000000","184869.0000000","Crown Castle NG","Rockaway Blvd","143rd St","144th St","Queens","UTILITY",,,,,"11436","412","28",
"1042273.0000000","184061.0000000","Crown Castle NG","Sutter Ave","147th St","148th St","Queens","UTILITY",,,,,"11436","412","28",
"1040230.0000000","183687.0000000","Crown Castle NG","142nd St","131st Ave","130th Ave","Queens","UTILITY",,,,,"11436","412","28",
"1038311.0000000","188178.0000000","Mobilitie I","Van Wyck Expressway","Linden Boulevard","115th Avenue","Queens","CITY",,,,,"11436","412","28",
"1039580.0000000","182901.0000000","Mobilitie II","Van Wyck Expy","134th Ave","134th Ave","Queens","CITY",,,,,"11436","412","28",
"1037749.0000000","193209.0000000","Crown Castle NG","97th Ave","Sean Bell Way","Waltham St","Queens","UTILITY",,,,,"11435","412","28",
"1038467.0000000","191666.0000000","Crown Castle NG","South Rd","Princeton St","Liverpool St","Queens","UTILITY",,,,,"11435","412","28",
"1037297.0000000","191635.0000000","Crown Castle NG","Pinegrove St","Liberty Ave","105th Ave","Queens","UTILITY",,,,,"11435","412","28",
"1039440.0000000","191604.0000000","Crown Castle NG","Lakewood Ave","Waltham St","Spa Pl","Queens","UTILITY",,,,,"11435","412","28",
"1037903.0000000","191440.0000000","Crown Castle NG","106th Ave","Inwood St","Pinegrove St","Queens","UTILITY",,,,,"11435","412","28",
"1038984.0000000","191036.0000000","Crown Castle NG","Lakewood Ave","Princeton St","Inwood St","Queens","UTILITY",,,,,"11435","412","28",
"1038827.0000000","189167.0000000","Mobilitie I","111th St","141th St","142nd St","Queens","UTILITY",,,,,"11435","412","28",
"1038351.0000000","192918.0000000","Mobilitie II","101st Ave","146th St","Liberty Ave","Queens","CITY",,,,,"11435","412","28",
"1039954.0000000","193154.0000000","Crown Castle NG","155th St","Tuskegee Airmen Way","107th Ave","Queens","UTILITY",,,,,"11433","412","28",
"1039520.0000000","192786.0000000","Crown Castle NG","Tuskegee Airmen Way","153rd St","150th St","Queens","UTILITY",,,,,"11433","412","28",
"1041220.0000000","191423.0000000","Crown Castle NG","156th St","Brinkerhoff Ave","109th Ave","Queens","UTILITY",,,,,"11433","412","28",
"1041221.0000000","190992.0000000","Crown Castle NG","155th St","Brinkerhoff Ave","110th Rd","Queens","UTILITY",,,,,"11433","412","28",
"1041472.0000000","190441.0000000","Mobilitie I","155th St","111th Ave","111th rd","Queens","UTILITY",,,,,"11433","412","28",
"1042407.0000000","191039.0000000","Mobilitie I","111th Ave","159th St","160th St","Queens","UTILITY",,,,,"11433","412","28",
"1042218.0000000","186258.0000000","Mobilitie I","Sutphin Blvd","120th Ave","121st Ave","Queens","UTILITY",,,,,"11434","412","28",
"1041936.0000000","189643.0000000","Mobilitie I","155th St","Linden Blvd","114th Rd","Queens","UTILITY",,,,,"11434","412","28",
"1035729.0000000","182281.0000000","Mobilitie II","N Conduit Avenue","126th Street","125th Street","Queens","CITY",,,,,"11420","410","28",
"1036672.0000000","185458.0000000","Mobilitie II","Foch Boulevard","127th Street","Rockaway Boulevard","Queens","CITY",,,,,"11420","410","28",
"1037582.0000000","187189.0000000","Mobilitie I","115th Ave","Lincoln St","134th St","Queens","UTILITY",,,,,"11420","410","28",
"1035960.0000000","188761.0000000","Mobilitie I","Hawtree Creek Rd","109 th Ave","128th St","Queens","UTILITY",,,,,"11420","410","28",
"1038841.0000000","182554.0000000","Mobilitie II","135th Ave","135th St","135th Pl","Queens","CITY",,,,,"11420","410","28",
"1039233.0000000","184284.0000000","Mobilitie II","Van Wyck Expy","Sutter Ave","130th Ave","Queens","CITY",,,,,"11420","410","28",
"1035031.0000000","186093.0000000","Mobilitie I","Hawtree Creek Rd","122nd St","121st St","Queens","UTILITY",,,,,"11420","410","28",
"1030212.0000000","188355.0000000","Mobilitie I","107th St","Liberty Ave","103rd Ave","Queens","UTILITY",,,,,"11417","410","28",
"1033886.0000000","189316.0000000","Crown Castle NG","122nd St","Liberty Ave","107th Ave","Queens","UTILITY",,,,,"11419","410","28",
"1033462.0000000","188968.0000000","Crown Castle NG","120th St","107th Ave","Liberty Ave","Queens","UTILITY",,,,,"11419","410","28",
"1032642.0000000","188856.0000000","Crown Castle NG","117th St","Liberty Ave","107th Ave","Queens","UTILITY",,,,,"11419","410","28",
"1032238.0000000","188644.0000000","Crown Castle NG","115th St","107th Ave","Liberty Ave","Queens","UTILITY",,,,,"11419","410","28",
"1032580.0000000","188325.0000000","Crown Castle NG","116th St","107th Ave","109th Ave","Queens","UTILITY",,,,,"11419","410","28",
"1032128.0000000","188151.0000000","Crown Castle NG","114th St","107th Ave","109th Ave","Queens","UTILITY",,,,,"11419","410","28",
"1031660.0000000","187978.0000000","Crown Castle NG","112th St","107th Ave","109th Ave","Queens","UTILITY",,,,,"11419","410","28",
"1036823.0000000","190974.0000000","Mobilitie II","Van Wyck Expressway","105th Avenue","Liberty Avenue","Queens","CITY",,,,,"11419","410","28",
"1034114.0000000","189878.0000000","Crown Castle Solutions","Liberty Ave","124th St","123rd St","Queens","CITY",,,,,"11419","410","28",
"1031414.0000000","187117.0000000","Mobilitie I","110th Street","109th Avenue","107th Avenue","Queens","CITY",,,,,"11419","410","28",
"1032375.0000000","188276.0000000","Mobilitie I","115th Ave","107th Ave","109th Ave","Queens","UTILITY",,,,,"11419","410","28",
"1036410.0000000","191268.0000000","Mobilitie II","Liberty Ave","135th St","134th St","Queens","CITY",,,,,"11419","410","28",
"1033902.0000000","192803.0000000","Mobilitie I","Atlantic Avenue","127th Street","129th Street","Queens","CITY",,,,,"11418","409","28",
"1029381.0000000","193129.0000000","Mobilitie I","111th St","Jamaica Ave","91st Ave","Queens","UTILITY",,,,,"11418","409","28",
"1028988.0000000","192805.0000000","Mobilitie I","109th St","Jamaica Ave","91st Ave","Queens","UTILITY",,,,,"11418","409","28",
"1029695.0000000","192321.0000000","Mobilitie I","111th St","91st Ave","Jamaica Ave","Queens","UTILITY",,,,,"11418","409","28",
"1032793.0000000","190869.0000000","Mobilitie I","120th St","101st Ave","97th Ave","Queens","UTILITY",,,,,"11419","409","28",
"1031235.0000000","190192.0000000","Crown Castle NG","101st Ave","113th St","114th St","Queens","UTILITY",,,,,"11419","409","28",
"1031969.0000000","191449.0000000","Crown Castle NG","118th St","95th Ave","97th Ave","Queens","UTILITY",,,,,"11419","409","28",
"1030809.0000000","191091.0000000","Mobilitie I","95th Ave","113th St","114th St","Queens","UTILITY",,,,,"11419","409","28",
"1033413.0000000","192502.0000000","Mobilitie I","125th St","94th Ave","Atlantic Ave","Queens","UTILITY",,,,,"11419","409","28",
"1028858.0000000","190980.0000000","Mobilitie I","Atlantic Avenue","106th Street","107th Street","Queens","CITY",,,,,"11416","409","28",
"1021874.0000000","262769.0000000","ZenFi","Carpenter Ave","E 224th St","E 223rd St","Bronx","UTILITY",,,,,"10466","212","12",
"1026571.0000000","262690.0000000","ZenFi","Laconia Av","Grenada Pl","E 229th St","Bronx","CITY",,,,,"10466","212","12",
"1022651.0000000","264634.0000000","Crown Castle NG","Carpenter Ave","E 231st St","E 230th St","Bronx","UTILITY",,,,,"10466","212","12",
"1021870.0000000","263322.0000000","Crown Castle NG","Bronx Blvd","E 226th St","E 224th St","Bronx","UTILITY",,,,,"10466","212","12",
"1025966.0000000","262343.0000000","Crown Castle NG","E 228th st","Laconia Ave","Paulding Ave","Bronx","UTILITY",,,,,"10466","212","12",
"1023917.0000000","262333.0000000","Crown Castle NG","E 225th St","Barnes Ave","Bronxwood Ave","Bronx","UTILITY",,,,,"10466","212","12",
"1026018.0000000","261756.0000000","ZenFi","East 226th Street","Laconia Avenue","Paulding Avenue","Bronx","UTILITY",,,,,"10466","212","12",
"1021507.0000000","262452.0000000","ZenFi","Bronx Boulevard","East 222nd Street","East 224th Street","Bronx","UTILITY",,,,,"10466","212","12",
"1026837.0000000","263517.0000000","ZenFi","E 233 St","Bruner Ave","Ely Ave","Bronx","UTILITY",,,,,"10466","212","12",
"1027180.0000000","264806.0000000","Extenet II","Edson Ave","Edenwald Ave","Bussing Ave","Bronx","UTILITY",,,,,"10466","212","12",
"1031671.0000000","263101.0000000","Extenet II","E 233rd ST","Provost Ave","Merritt ave","Bronx","UTILITY",,,,,"10466","212","12",
"1022837.0000000","262479.0000000","Crown Castle NG","E 224th St","White Plains Rd","Barnes Ave","Bronx","UTILITY",,,,,"10466","212","12",
"1026045.0000000","261372.0000000","Mobilitie II","E 225th St","Laconia Ave","Schieffelin Ave","Bronx","CITY",,,,,"10466","212","12",
"1021337.0000000","258027.0000000","ZenFi","Cruger Ave","Magenta St","Bartholdi St","Bronx","UTILITY",,,"Gun Hill Playground",,"10467","212","12",
"1022068.0000000","257106.0000000","ZenFi","Barnes Ave","S Oak Dr","Chestnut St","Bronx","UTILITY",,,,,"10467","212","12",
"1020982.0000000","258700.0000000","ZenFi","White Plains Rd","E Gun Hill Rd","Magenta St","Bronx","UTILITY",,,,,"10467","212","12",
"1021449.0000000","261740.0000000","Crown Castle NG","Carpenter Ave","E 220th St","E 219th St","Bronx","UTILITY",,,,,"10467","212","12",
"1021601.0000000","260840.0000000","Crown Castle NG","Willett Ave","E 216th St","E 219th St","Bronx","UTILITY",,,,,"10467","212","12",
"1022059.0000000","257008.0000000","Crown Castle NG","Barnes Ave","S Oak Dr","Burke Ave","Bronx","UTILITY",,,,,"10467","212","12",
"1022520.0000000","257946.0000000","ZenFi","Magenta Street","Bronxwood Ave","Barnes Ave","Bronx","UTILITY",,,,"BRONX AEROSPACE HS","10467","212","12",
"1021975.0000000","258595.0000000","ZenFi","East Gun Hill Road","Capuchin Way","Holland Avenue","Bronx","UTILITY",,,,,"10467","212","12",
"1021532.0000000","257455.0000000","ZenFi","North Oak Drive","Holland Avenue","Wallace Avenue","Bronx","UTILITY",,,,,"10467","212","12",
"1022555.0000000","256815.0000000","ExteNet I","Bronxwood Ave","Burke Ave","S Oak Dr","Bronx","CITY",,,,,"10467","212","12",
"1022119.0000000","260926.0000000","Extenet II","E 218th ST","White Plains rd","Barnes ave","Bronx","UTILITY",,,,,"10467","212","12",
"1022416.0000000","257965.0000000","Crown Castle NG","Magenta St","Barnes Ave","Bronxwood Ave","Bronx","UTILITY",,,,"BRONX AEROSPACE HS","10467","212","12",
"1021642.0000000","258809.0000000","Crown Castle NG","E Gun Hill Rd","Holland Ave","White Plains Rd","Bronx","UTILITY",,,,,"10467","212","12",
"1021422.0000000","259696.0000000","Mobilitie I","E 213th St","Duncomb Ave","Willet Ave","Bronx","UTILITY",,,,,"10467","212","12",
"1021022.0000000","260704.0000000","Mobilitie I","Bronx Blvd","E 216th St","E 213th St","Bronx","UTILITY",,,,,"10467","212","12",
"1022341.0000000","258327.0000000","Mobilitie I","Barnes Ave","E Gun Hill Rd","Magenta St","Bronx","UTILITY",,,,"BRONX AEROSPACE HS","10467","212","12",
"1031308.0000000","260786.0000000","Extenet II","Steenwick Ave","New England Thruway","Reeds Mill Lane","Bronx","UTILITY",,,,,"10475","212","12",
"1024731.0000000","258459.0000000","ZenFi","E 213th St","Laconia Av","MSGR Cahill Pl","Bronx","UTILITY",,,,,"10469","212","12",
"1028896.0000000","255455.0000000","Crown Castle NG","Tiemann Ave","Arnow Ave","Bartow Ave","Bronx","UTILITY",,,,,"10469","212","12",
"1029610.0000000","257140.0000000","Extenet II","Grace Ave","Adee Ave","Hammersley Ave","Bronx","UTILITY",,,,,"10469","212","12",
"1028897.0000000","257282.0000000","ZenFi","Hammersley Avenue","Bruner Avenue","Wickham Avenue","Bronx","UTILITY",,,,,"10469","212","12",
"1026051.0000000","260413.0000000","ZenFi","Eastchester Road","East 222nd Street","Oakley Street","Bronx","UTILITY",,,,,"10469","212","12",
"1029685.0000000","256100.0000000","ZenFi","Ely Avenue","Arnow Avenue","Bartow Avenue","Bronx","UTILITY",,,,,"10469","212","12",
"1026753.0000000","258902.0000000","ZenFi","Eastchester Road","Boston Road","Chester Street","Bronx","UTILITY",,,,,"10469","212","12",
"1025350.0000000","260255.0000000","ZenFi","Laconia Avenue","East 220th Street","East 221st Street","Bronx","UTILITY",,,,,"10469","212","12",
"1027383.0000000","257330.0000000","ZenFi","Eastchester Rd","Burke Ave","Hammersley Ave","Bronx","UTILITY",,,,,"10469","212","12",
"1030387.0000000","255622.0000000","ExteNet I","Bartow Ave","Edson Ave","Ely Ave","Bronx","CITY",,,,,"10469","212","12",
"1025998.0000000","258475.0000000","ExteNet I","Seymour Ave","Boston Rd","Givan Ave","Bronx","CITY",,,,,"10469","212","12",
"1025181.0000000","258826.0000000","Extenet II","E 215th St","Wilson Ave","Hicks St","Bronx","UTILITY",,,"GREENSTREET",,"10469","212","12",
"1027083.0000000","259000.0000000","Extenet II","Boston Rd","Mickle ave","Kingsland ave","Bronx","UTILITY",,,,,"10469","212","12",
"1028920.0000000","256589.0000000","Crown Castle NG","Adee Ave","Wickham Ave","Gunther Ave","Bronx","UTILITY",,,,,"10469","212","12",
"1024960.0000000","259142.0000000","Crown Castle NG","E 216th St","Wilson Ave","Laconia Ave","Bronx","UTILITY",,,,,"10469","212","12",
"1028808.0000000","255708.0000000","Crown Castle NG","Tiemann Ave","Arnow Ave","Bartow Ave","Bronx","UTILITY",,,,,"10469","212","12",
"1027649.0000000","256421.0000000","Mobilitie I","Eastchester Rd","Knapp St","Hammersley Ave","Bronx","UTILITY",,,,,"10469","212","12",
"1032761.0000000","257677.0000000","ZenFi","Co-Op City Boulevard","Bellamy Loop","Carver Loop","Bronx","CITY",,,,,"10475","210","12",
"1031461.0000000","258411.0000000","ZenFi","DeFoe Place","De Kruif Place","Dreiser Loop","Bronx","CITY",,,,,"10475","210","12",
"1031821.0000000","258926.0000000","ZenFi","Dreiser Loop","Debs Place","Co Op City Boulevard","Bronx","CITY",,,,,"10475","210","12",
"1032847.0000000","259240.0000000","ZenFi","Cooper Place","Carver Loop","Carver Loop","Bronx","CITY",,,,,"10475","210","12",
"1031382.0000000","256744.0000000","ExteNet I","Asch Loop","Alcott Pl","Alder Pl","Bronx","CITY",,,,,"10475","210","12",
"1031108.0000000","255896.0000000","ExteNet I","Bartow Ave","Asch Loop","Baychester Ave","Bronx","CITY",,,,,"10475","210","12",
"1032690.0000000","259038.0000000","Crown Castle NG","Cooper Pl","Carver Loop","Dead End","Bronx","CITY",,,,,"10475","210","12",
"1031558.0000000","258453.0000000","Crown Castle Fiber","Dreiser Loop","Dreiser loop","Debs Pl","Bronx","CITY",,,,,"10475","210","12",
"1031873.0000000","260133.0000000","Crown Castle NG","Rombouts Ave","Givan Ave","Tillotson Ave","Bronx","UTILITY",,,,,"10475","210","12",
"1032695.0000000","261080.0000000","Crown Castle NG","Peartree Ave","Tillotson Ave","Givan Ave","Bronx","UTILITY",,,,,"10475","210","12",
"1033265.0000000","254586.0000000","Mobilitie II","Einstein Loop N","Hutchinson River Parkway E","Einstein Loop E","Bronx","CITY",,,,,"10475","210","12",
"1032909.0000000","259929.0000000","Mobilitie II","Co-Op City Blvd","Pear Tree Ave","Carver Loop","Bronx","CITY",,,,,"10475","210","12",
"1030234.0000000","258430.0000000","Mobilitie II","Baychester Ave","Donizetti Pl","Aldrich St","Bronx","CITY",,,,"PUBLIC SCHOOL 153","10475","210","12",
"1033141.0000000","253331.0000000","Mobilitie II","Earhart Ln","Hunter Ave","Erskine Pl","Bronx","CITY",,,,,"10475","210","12",
"1031344.0000000","259251.0000000","Mobilitie II","Co-Op City Blvd","Dreiser Loop","Baychester Ave","Bronx","CITY",,,,,"10475","210","12",
"1022511.0000000","255497.0000000","Crown Castle NG","Arnow Ave","Williamsbridge Rd","Bronxwood Ave","Bronx","UTILITY",,,,,"10467","211","12",
"1026052.0000000","255377.0000000","ZenFi","Sexton Pl","Wilson Av","Arnow Av","Bronx","UTILITY",,,,,"10469","211","12",
"1024741.0000000","256050.0000000","ExteNet I","Adee Ave","Hering Ave","Tenbroeck Ave","Bronx","CITY",,,,,"10469","211","12",
"1025520.0000000","256031.0000000","Mobilitie I","Throop Ave","Adee Ave","Arnow Ave","Bronx","UTILITY",,,,,"10469","211","12",
"989351.0000000","162914.0000000","ZenFi","Bay Parkway","65th Street","66th Street","Brooklyn","CITY",,,,,"11204","311","47",
"988390.0000000","164118.0000000","Mobilitie II","20th Avenue","64th Street","63rd Street","Brooklyn","CITY",,,,,"11204","311","47",
"986297.0000000","162735.0000000","Mobilitie I","19th Avenue","73rd Street","72nd Street","Brooklyn","CITY",,,,,"11204","311","47",
"986182.0000000","158795.0000000","ZenFi","Bay Parkway","85th Street","84th Street","Brooklyn","CITY",,,,,"11214","311","47",
"984794.0000000","159673.0000000","ZenFi","20th Avenue","86th Street","85th Street","Brooklyn","CITY",,,,,"11214","311","47",
"985764.0000000","161390.0000000","ExteNet I","78th St","20th Ave","19th Ave","Brooklyn","CITY",,,,,"11214","311","47",
"983018.0000000","159648.0000000","ExteNet I","Benson Ave","Bay 19th St","18th Ave","Brooklyn","CITY",,,,,"11214","311","47",
"984333.0000000","160261.0000000","Mobilitie II","19th Avenue","85th Street","84th Street","Brooklyn","CITY",,,,,"11214","311","47",
"984720.0000000","161874.0000000","Mobilitie I","18th Avenue","79th Street","80th Street","Brooklyn","CITY",,,,,"11214","311","47",
"986149.0000000","157450.0000000","Mobilitie I","Benson Ave","23rd Ave","Bay 34th St","Brooklyn","UTILITY",,,,,"11214","311","47",
"985767.0000000","156681.0000000","Mobilitie I","Bath Ave","Bay 34th St","23rd Ave","Brooklyn","UTILITY",,,,,"11214","311","47",
"989925.0000000","156618.0000000","Extenet II","W 8th ST","Ave U","Ave T","Brooklyn","UTILITY",,,,,"11223","311","47",
"988124.0000000","155891.0000000","ExteNet I","Benson Ave","Bay 43rd St","26th Ave","Brooklyn","CITY",,,,,"11214","313","47",
"987547.0000000","155154.0000000","Mobilitie I","Bath Avenue","Bay 43rd Street","26th Avenue","Brooklyn","CITY",,,,,"11214","313","47",
"988658.0000000","154281.0000000","Mobilitie I","Stillwell Ave","Bath Ave","Bay 49th St","Brooklyn","UTILITY",,,,,"11214","313","47",
"989058.0000000","153899.0000000","Mobilitie II","Avenue X","W 13th Street","W 12th Street","Brooklyn","CITY",,,,,"11223","313","47",
"993451.0000000","152427.0000000","Mobilitie II","Ocean Parkway","Nixon Ct","Shore Parkway","Brooklyn","CITY",,,,,"11223","313","47",
"988808.0000000","155598.0000000","Mobilitie I","Avenue V","W 13th St","W 12th St","Brooklyn","UTILITY",,,,,"11223","313","47",
"990195.0000000","155182.0000000","Mobilitie I","86th St","W 8th St","W 8th St","Brooklyn","UTILITY",,,,,"11223","313","47",
"988081.0000000","150204.0000000","ZenFi","Neptune Av","W 19 ST","Cropsey Av","Brooklyn","UTILITY",,,,,"11224","313","47",
"984438.0000000","148016.0000000","ExteNet I","Surf Ave","W 33rd St","W 35th St","Brooklyn","CITY",,,,,"11224","313","47",
"984551.0000000","149681.0000000","Mobilitie I","Neptune Avenue","W 32nd Street","Bay View Avenue","Brooklyn","CITY",,,,,"11224","313","47",
"988190.0000000","149137.0000000","Extenet II","W 19th ST","Mermaid Ave","Surf Ave","Brooklyn","UTILITY",,,,,"11224","313","47",
"992120.0000000","150570.0000000","Mobilitie II","W 5th St","Neptune Ave","West Ave","Brooklyn","CITY",,,,,"11224","313","47",
"987265.0000000","148416.0000000","Mobilitie II","Surf Ave","W 22nd St","W 23rd St","Brooklyn","CITY",,,,,"11224","313","47",
"994978.0000000","157339.0000000","ZenFi","Coney Island Av","Avenue U","Avenue T","Brooklyn","UTILITY",,,,,"11223","315","47",
"993943.0000000","157128.0000000","Mobilitie I","Avenue U","Ocean Parkway","E 7th Street","Brooklyn","CITY",,,,,"11223","315","47",
"994089.0000000","157926.0000000","Mobilitie I","E 7th St","Avenue T","Avenue U","Brooklyn","UTILITY",,,,,"11223","315","47",
"993692.0000000","158756.0000000","Mobilitie II","Ocean Parkway","Avenue S","Avenue T","Brooklyn","CITY",,,,,"11223","315","47",
"995333.0000000","151262.0000000","ZenFi","Neptune Ave","Coney Island Ave","Brighton 8th St","Brooklyn","UTILITY",,,,,"11235","313","48",
"994667.0000000","149839.0000000","ZenFi","Brighton 5th Street","Brighton Beach Avenue","Ocean View Avenue","Brooklyn","CITY",,,,,"11235","313","48",
"994020.0000000","150250.0000000","Mobilitie I","Ocean View Avenue","Brighton 3rd Street","Brighton 3rd Place","Brooklyn","CITY",,,,,"11235","313","48",
"996736.0000000","149702.0000000","Mobilitie II","Brighton Beach Ave","Brighton 15th St","Corbin Pl","Brooklyn","CITY",,,,,"11235","313","48",
"996017.0000000","149986.0000000","Mobilitie II","Brighton Beach Ave","Brighton 12th St","Brighton 13th St","Brooklyn","CITY","Brighton Beach BID",,,,"11235","313","48",
"995080.0000000","149041.0000000","Mobilitie II","Brightwater Ct","Brighton 6th St","Brighton 7th St","Brooklyn","CITY",,,,,"11235","313","48",
"992829.0000000","148916.0000000","Mobilitie II","Seabreeze Ave","Oceans Parkway","W 1st St","Brooklyn","CITY",,,,,"11224","313","48",
"992299.0000000","149881.0000000","Mobilitie II","W 2nd Pl","W 3rd St","W 2nd St","Brooklyn","CITY",,,,,"11224","313","48",
"999533.0000000","158774.0000000","Mobilitie I","Avenue T","E 27th St","E 28th St","Brooklyn","UTILITY",,,,,"11229","315","48",
"997705.0000000","157611.0000000","ZenFi","Ocean Avenue","Avenue U","Avenue V","Brooklyn","CITY",,,,,"11229","315","48",
"998878.0000000","161298.0000000","Mobilitie I","Quentin Rd","E 26th St","E 27th St","Brooklyn","UTILITY",,,,,"11229","315","48",
"996938.0000000","161066.0000000","Mobilitie II","Quentin Road","E 19th Street","Ocean Avenue","Brooklyn","CITY",,,,,"11229","315","48",
"994954.0000000","161517.0000000","Mobilitie II","Avenue P","E 12th Street","Coney Island Avenue","Brooklyn","CITY",,,,,"11229","315","48",
"997532.0000000","159382.0000000","Mobilitie I","Ocean Avenue","Avenue S","Avenue R","Brooklyn","CITY",,,,,"11229","315","48",
"997673.0000000","155993.0000000","Mobilitie I","Avenue W","E 19th Street","Ocean Avenue","Brooklyn","CITY",,,,,"11229","315","48",
"995710.0000000","159920.0000000","Mobilitie I","Avenue R","E 14th Street","E 13th Street","Brooklyn","CITY",,,,,"11229","315","48",
"998707.0000000","158655.0000000","Mobilitie I","Avenue T","E 24th Street","Bedford Avenue","Brooklyn","CITY",,,,,"11229","315","48",
"996759.0000000","160073.0000000","Mobilitie I","Avenue R","E 18th Street","E 17th Street","Brooklyn","CITY",,,,,"11229","315","48",
"997052.0000000","158416.0000000","Mobilitie I","Avenue T","E 18th Street","E 19th Street","Brooklyn","CITY",,,,,"11229","315","48",
"996581.0000000","157510.0000000","Mobilitie I","Avenue U","E 16th Street","E 15th Street","Brooklyn","CITY",,,,,"11229","315","48",
"995858.0000000","161028.0000000","Mobilitie I","E 15th St","Kings Highway","Avenue R","Brooklyn","UTILITY","Kings Highway BID",,,,"11229","315","48",
"996657.0000000","159249.0000000","Mobilitie I","Avenue S","E 17th St","E 18th st","Brooklyn","UTILITY",,,,"PS 255,CUNNINGHAM JHS","11229","315","48",
"997931.0000000","158546.0000000","Mobilitie II","Avenue T","E 21st St","E 22nd St","Brooklyn","CITY",,,,,"11229","315","48",
"1002345.0000000","155880.0000000","Mobilitie II","Avenue X","Bragg St","Brigham St","Brooklyn","CITY",,,,,"11229","315","48",
"998345.0000000","155300.0000000","Mobilitie II","Avenue X","E 21st St","Ocean Ave","Brooklyn","CITY",,,,,"11229","315","48",
"997769.0000000","161194.0000000","Mobilitie I","E 22nd St","Quentin Rd","Avenue P","Brooklyn","UTILITY",,,,,"11229","315","48",
"994294.0000000","158907.0000000","Mobilitie II","Avenue S","E 8th St","E 9th St","Brooklyn","CITY",,,,,"11223","315","48",
"1002733.0000000","152081.0000000","ExteNet I","Emmons Ave","Coyle St","Bragg St","Brooklyn","CITY",,,,,"11235","315","48",
"999951.0000000","151973.0000000","Mobilitie I","Emmons Avenue","Bedford Avenue","E 26th Street","Brooklyn","CITY",,,,,"11235","315","48",
"997143.0000000","152243.0000000","Mobilitie I","Shore Parkway","E 15th Street","E 16th Street","Brooklyn","CITY",,,,,"11235","315","48",
"1002212.0000000","153015.0000000","Mobilitie I","Shore Parkway","Ford Street","Coyle Street","Brooklyn","CITY",,,,,"11235","315","48",
"1000960.0000000","154441.0000000","Mobilitie I","Nostrand Avenue","Avenue Z","Avenue Y","Brooklyn","CITY",,,,,"11235","315","48",
"996551.0000000","153462.0000000","Mobilitie I","Avenue Z","Sheepshead Bay Rd","E 14th St","Brooklyn","UTILITY",,,,,"11235","315","48",
"1000859.0000000","155146.0000000","Mobilitie II","Nostrand Ave","Avenue Y","Avenue X","Brooklyn","CITY",,,,,"11235","315","48",
"1003639.0000000","152252.0000000","Mobilitie II","Emmons Ave","Shore Parkway","Knapp St","Brooklyn","CITY",,,,,"11235","315","48",
"1001805.0000000","152129.0000000","Mobilitie I","Brown St","Emmons Ave","Shore Pkwy","Brooklyn","UTILITY",,,,,"11235","315","48",
"998647.0000000","164324.0000000","Mobilitie I","E 27 Street","Avenue N","Avenue M","Brooklyn","CITY",,,,,"11210","314","48",
"996785.0000000","164624.0000000","Mobilitie II","Avenue M","Ocean Avenue","E 21st Street","Brooklyn","CITY",,,,,"11210","314","48",
"995410.0000000","164376.0000000","ZenFi","Elm Ave","E 15th St","Buckingham Rd","Brooklyn","UTILITY",,,,,"11230","314","48",
"996638.0000000","162723.0000000","Mobilitie II","Avenue O","E 19th Street","E 18th Street","Brooklyn","CITY",,,,,"11230","314","48",
"996110.0000000","164522.0000000","Mobilitie I","Avenue M","E 18th Street","E 17th STreet","Brooklyn","CITY",,,,,"11230","314","48",
"997085.0000000","161919.0000000","Mobilitie II","Ocean Ave","Avenue P","Avenue O","Brooklyn","CITY",,,,,"11230","314","48",
"994927.0000000","163511.0000000","Mobilitie II","Avenue N","E 13th St","E 12th St","Brooklyn","CITY",,,,,"11230","314","48",
"1007716.0000000","177717.0000000","Mobilitie II","Linden Boulevard","E 95th Street","E 96th Street","Brooklyn","CITY",,,,,"11212","317","42",
"1006560.0000000","178190.0000000","Mobilitie II","Willmohr Street","E 93rd Street","E 92nd Street","Brooklyn","CITY",,,,,"11212","317","42",
"1011189.0000000","179235.0000000","Mobilitie II","Loft Avenue","Christopher Avenue","Sackman Street","Brooklyn","CITY",,,,,"11212","316","42",
"1009767.0000000","179531.0000000","Mobilitie II","Rockaway Avenue","Newport Street","Lott Avenue","Brooklyn","CITY",,,,,"11212","316","42",
"1009308.0000000","178866.0000000","Mobilitie II","Lott Avenue","Bristol Street","Thomas S Boyland Street","Brooklyn","CITY",,,,,"11212","316","42",
"1009940.0000000","178415.0000000","Mobilitie II","Rockaway Avenue","Hegeman Avenue","Lott Avenue","Brooklyn","CITY",,,,,"11212","316","42",
"1008047.0000000","179829.0000000","Mobilitie II","Riverdale Ave","Strauss St","Saratoga Ave","Brooklyn","CITY",,,,,"11212","316","42",
"1009605.0000000","177657.0000000","Mobilitie II","Linden Blvd","Bristol Street","Chester Street","Brooklyn","CITY",,,,"THE CULTURAL ARTS ACADEMY AT SPRING CREEK CHARTER SCHOOL","11236","316","42",
"1013305.0000000","176555.0000000","ExteNet I","E 108th St","Farragut Rd","Glenwood Rd","Brooklyn","CITY",,,,,"11236","318","42",
"1011768.0000000","177164.0000000","ExteNet I","E 105th St","Foster Ave","Ave D","Brooklyn","CITY",,,,,"11236","318","42",
"1010890.0000000","175855.0000000","Mobilitie II","Foster Avenue","E 99th Street","E 100th Street","Brooklyn","CITY",,,,,"11236","318","42",
"1013314.0000000","175120.0000000","Mobilitie I","Flatlands Avenue","E 104th Street","E105th Street","Brooklyn","CITY",,,,,"11236","318","42",
"1013002.0000000","175701.0000000","Mobilitie I","Glenwood Road","E 105th Street","E 104th Street","Brooklyn","CITY",,,,,"11236","318","42",
"1020024.0000000","183858.0000000","Mobilitie I","Euclid Ave","Blake Ave","Dumont Ave","Brooklyn","UTILITY",,,,,"11208","305","42",
"1018953.0000000","178966.0000000","Mobilitie II","Elton Street","Flatlands Avenue","Cozine Avenue","Brooklyn","CITY",,,,,"11208","305","42",
"1020522.0000000","185482.0000000","Mobilitie II","Pitkin Avenue","Hemlock Street","Crescent Avenue","Brooklyn","CITY",,,,,"11208","305","42",
"1019713.0000000","184431.0000000","Mobilitie I","Sutter Avenue","Doscher Street","Chestnut St","Brooklyn","CITY",,,,,"11208","305","42",
"1017666.0000000","181764.0000000","Mobilitie I","Linwood St","Hegeman Ave","New Lots Ave","Brooklyn","UTILITY",,,,,"11208","305","42",
"1021296.0000000","181727.0000000","Mobilitie I","Hemlock street","Stanley Ave","Workman ave","Brooklyn","UTILITY",,,"Woodruff Playground","PS 224 NR HEMLOCK","11208","305","42",
"1017240.0000000","182739.0000000","Mobilitie I","Linwood St","Dumont Ave","New Lots Ave","Brooklyn","UTILITY",,,,,"11208","305","42",
"1019550.0000000","185297.0000000","Mobilitie II","Pitkin Ave","Doscher St","Chestnut St","Brooklyn","CITY",,,,,"11208","305","42",
"1020991.0000000","185649.0000000","Mobilitie II","S Conduit Blvd","Pitkin Ave","Autmn Ave","Brooklyn","CITY",,,,,"11208","305","42",
"1015700.0000000","180489.0000000","Mobilitie II","Hegeman Avenue","Van Siclen Avenue","Hendrix Street","Brooklyn","CITY",,,,,"11207","305","42",
"1016471.0000000","179563.0000000","Mobilitie II","Stanley Avenue","Hendrix Street","Van Siclen Avenue","Brooklyn","CITY",,,,,"11207","305","42",
"1017018.0000000","180694.0000000","Mobilitie II","Linden Boulevard","Warwick Street","Jerome Street","Brooklyn","CITY",,,,,"11207","305","42",
"1013008.0000000","180756.0000000","Mobilitie II","Riverdale Avenue","Alabama Avenue","Georgia Avenue","Brooklyn","CITY",,,,,"11207","305","42",
"1013289.0000000","182604.0000000","ExteNet I","Blake Ave","Sheffield Ave","Pennsylvania Ave","Brooklyn","CITY",,,,,"11207","305","42",
"1015719.0000000","177279.0000000","ExteNet I","Pennsylvania Ave","Flatlands Ave","Cozine Ave","Brooklyn","CITY",,,,,"11207","305","42",
"1015165.0000000","176703.0000000","Mobilitie I","Flatlands Avenue","Alabama Avenue","Georgia Avenue","Brooklyn","CITY",,,,,"11207","305","42",
"1016431.0000000","181846.0000000","Mobilitie I","New Lots Ave","Warwick St","Ashford St","Brooklyn","UTILITY",,,,,"11207","305","42",
"1015753.0000000","184088.0000000","Mobilitie I","Jerome St","Belmont Ave","Sutter Ave","Brooklyn","UTILITY",,,,,"11207","305","42",
"1015378.0000000","183591.0000000","Mobilitie I","Sutter Ave","Schenck Ave","Barbey St","Brooklyn","UTILITY",,,"Sutter Ballfields",,"11207","305","42",
"1016411.0000000","183233.0000000","Mobilitie I","Ashford St","Blake Ave","Sutter Ave","Brooklyn","UTILITY",,,,,"11207","305","42",
"1012296.0000000","180098.0000000","Mobilitie I","Snediker Ave","Newport St","Riverdale Ave","Brooklyn","UTILITY",,,,,"11207","305","42",
"1012362.0000000","182422.0000000","Mobilitie II","Blake Ave","Williams Ave","Hinsdale St","Brooklyn","CITY",,,,,"11207","305","42",
"1015960.0000000","179894.0000000","Mobilitie II","Van Siclen Ave","Linden Blvd","Stanley Ave","Brooklyn","CITY",,,,"VAN SICLEN COMMUNITY MIDDLE SCHOOL","11207","305","42",
"1016043.0000000","178538.0000000","Mobilitie II","Wortman Ave","Vermont Street","Van Siclen Ave","Brooklyn","CITY",,,,,"11207","305","42",
"1020373.0000000","176381.0000000","ExteNet I","Gateway Drive","Site Dr","Erskine St","Brooklyn","CITY",,,,,"11239","305","42",
"946894.0000000","141184.0000000","ZenFi","Durant Ave","Kelvin Ave","Bay Ter","Staten_Island","UTILITY",,,,,"10306","503","51",
"945007.0000000","146371.0000000","ZenFi","Clarke Av","Mc Kinley Ave","Gianna Ct","Staten_Island","UTILITY",,,,,"10306","503","51",
"947352.0000000","144573.0000000","Crown Castle NG","Amboy Rd","Montreal Ave.","Fairbanks Ave.","Staten_Island","UTILITY",,,,,"10306","503","51",
"946552.0000000","142246.0000000","Crown Castle NG","S Railroad Ave","Justin Ave","Spratt Ave","Staten_Island","UTILITY",,,,,"10306","503","51",
"944675.0000000","138664.0000000","ZenFi","Great Kills Rd","Cottage Av","Ocean Rd","Staten_Island","UTILITY",,,,,"10308","503","51",
"940498.0000000","141723.0000000","ZenFi","Brookfield Ave","Leverett Ave","Genesee Ave","Staten_Island","UTILITY",,,,,"10308","503","51",
"940430.0000000","138605.0000000","ZenFi","Old Amboy Rd","Amboy Rd","Armstrong Ave","Staten_Island","UTILITY","South Shore BID",,,,"10308","503","51",
"945289.0000000","140604.0000000","ZenFi","O'Gorman Av","Cranford St","Keegans Ln","Staten_Island","UTILITY",,,,,"10308","503","51",
"941039.0000000","137802.0000000","ZenFi","Cloverdale Av","Oakdale St","Sycamore St","Staten_Island","UTILITY",,,,,"10308","503","51",
"941393.0000000","144447.0000000","ZenFi","Elkhart St","Miles Av","Giffords Ln","Staten_Island","UTILITY",,,,,"10308","503","51",
"941820.0000000","137656.0000000","ZenFi","Acacia Av","Sycamore St","Eleanor Ln","Staten_Island","UTILITY",,,,,"10308","503","51",
"942142.0000000","144925.0000000","ZenFi","Ekhart Av","Corbin Av","Greaves Av","Staten_Island","UTILITY",,,,"PS 37 984-9800","10308","503","51",
"945326.0000000","139172.0000000","ZenFi","Greencroft Av","Feildway Av","Keegans Ln","Staten_Island","UTILITY",,,,,"10308","503","51",
"943355.0000000","143811.0000000","Crown Castle NG","Corbin Ave","Ironwood St","Jumel St","Staten_Island","UTILITY",,,,,"10308","503","51",
"939793.0000000","143499.0000000","Crown Castle NG","Gurley Ave","Brookfield Ave","Abingdon Ave","Staten_Island","UTILITY",,,,,"10308","503","51",
"945129.0000000","139256.0000000","Mobilitie I","Maybury Avenue","Fieldway Avenue","Great Kills Road","Staten_Island","CITY",,,,,"10308","503","51",
"943295.0000000","143500.0000000","Crown Castle NG","Kennington St","Corbin Ave","Greaves Ave","Staten_Island","UTILITY",,,,,"10308","503","51",
"944061.0000000","138475.0000000","Mobilitie I","Durant Ave","Hillside Terrace","Cleveland Ave","Staten_Island","UTILITY",,,,,"10308","503","51",
"930238.0000000","135633.0000000","ZenFi","Lamont Ave","Huguenot Ave","Nippon Ave","Staten_Island","UTILITY",,,,,"10312","503","51",
"937948.0000000","133914.0000000","Crown Castle NG","Harold Ave","Koch Blvd","Janesen St","Staten_Island","UTILITY",,,,,"10312","503","51",
"932925.0000000","141145.0000000","ZenFi","Woodrow Rd","Regina Ln","Presentation Ci","Staten_Island","UTILITY",,,,,"10312","503","51",
"939052.0000000","134379.0000000","ZenFi","Liss St","Hales Av","Woods of Arden Rd","Staten_Island","UTILITY",,,,,"10312","503","51",
"937628.0000000","138548.0000000","ZenFi","Petrus Av","Chesebrough St","Bayard St","Staten_Island","UTILITY",,,,,"10312","503","51",
"932554.0000000","139350.0000000","ZenFi","Vineland Av","Arden Av","Jefferson Av","Staten_Island","UTILITY",,,,,"10312","503","51",
"939001.0000000","135394.0000000","ZenFi","Preston Av","Rankin St","Sycamore St","Staten_Island","UTILITY",,,,,"10312","503","51",
"930820.0000000","137922.0000000","ZenFi","Delmar Av","Vineland Av","Crown Av","Staten_Island","UTILITY",,,,,"10312","503","51",
"930477.0000000","136409.0000000","ZenFi","Nippon Av","Rensselaer Av","Rathbun Av","Staten_Island","UTILITY",,,,,"10312","503","51",
"931424.0000000","135729.0000000","ZenFi","Lonia Av","Delmar Av","Nippon Av","Staten_Island","UTILITY",,,,,"10312","503","51",
"937348.0000000","142113.0000000","ZenFi","Richmond Av","Perkiomen Av","Barlow Av","Staten_Island","UTILITY",,,,,"10312","503","51",
"933553.0000000","141871.0000000","ZenFi","Woodrow Rd","Shotwell Av","Grantwood Av","Staten_Island","UTILITY",,,,,"10312","503","51",
"936274.0000000","140416.0000000","ZenFi","Pompey Av","Genesee Av","Augusta Av","Staten_Island","UTILITY",,,,,"10312","503","51",
"938728.0000000","140858.0000000","ZenFi","Genesee Av","Cortelyou Av","Ridgewood Av","Staten_Island","UTILITY",,,,,"10312","503","51",
"937671.0000000","140173.0000000","ZenFi","Richmond Av","Figurea Av","Katan Av","Staten_Island","UTILITY",,,,,"10312","503","51",
"936880.0000000","139743.0000000","ZenFi","Katan Av","Pompey Av","Wainwright Av","Staten_Island","UTILITY",,,,,"10312","503","51",
"940640.0000000","137069.0000000","ZenFi","Robinson Av","Sycamore St","Oakdale St","Staten_Island","UTILITY",,,,,"10312","503","51",
"937022.0000000","136617.0000000","ZenFi","Arden Av","Vanessa Ln","Mosely Av","Staten_Island","UTILITY",,,,,"10312","503","51",
"939981.0000000","134396.0000000","ZenFi","Retford Av","King St","Shirley Av","Staten_Island","UTILITY",,,,,"10312","503","51",
"937568.0000000","133317.0000000","ZenFi","Holdridge Av","Jansen St","Weaver St","Staten_Island","UTILITY",,,,,"10312","503","51",
"936252.0000000","130263.0000000","Crown Castle NG","Poillon Ave","Zephyr Ave","Kenwood Ave","Staten_Island","UTILITY",,,,,"10312","503","51",
"938544.0000000","133659.0000000","Crown Castle NG","Arden Ave","Weaver St","Shirley Ave","Staten_Island","UTILITY",,,,,"10312","503","51",
"940977.0000000","134341.0000000","Crown Castle NG","Richmond Ave","Kings St","Hylan Blvd","Staten_Island","UTILITY",,,,,"10312","503","51",
"928516.0000000","141374.0000000","Crown Castle NG","Pratt Ln","Cody Pl","Dead End","Staten_Island","UTILITY",,,,,"10312","503","51",
"938812.0000000","140087.0000000","Crown Castle NG","Ovas Ct","Ridgewood Ave","Dead End","Staten_Island","UTILITY",,,,,"10312","503","51",
"932735.0000000","138688.0000000","Crown Castle NG","Sinclair Ave","Jefferson Ave","Arden Ave","Staten_Island","UTILITY",,,,,"10312","503","51",
"940152.0000000","136951.0000000","Crown Castle NG","Pacific Ave","Oakdale St","Sycamore St.","Staten_Island","UTILITY",,,,,"10312","503","51",
"933309.0000000","136814.0000000","Crown Castle NG","Ionia Ave","Belfield Ave.","Albee Ave.","Staten_Island","UTILITY",,,,,"10312","503","51",
"934986.0000000","136394.0000000","Crown Castle NG","Possen St.","Annadale Rd.","Dead End","Staten_Island","UTILITY","South Shore BID",,,,"10312","503","51",
"941175.0000000","136007.0000000","Crown Castle NG","Beach Rd.","Hillcrest St.","Sycamore St.","Staten_Island","UTILITY",,,,,"10312","503","51",
"932991.0000000","134739.0000000","Crown Castle NG","Bennett Ave","Alvine Ave","Archwood Ave","Staten_Island","UTILITY",,,,,"10312","503","51",
"941098.0000000","133552.0000000","Crown Castle NG","Hylan Blvd","Retford Ave","Preston Ave","Staten_Island","UTILITY",,,,,"10312","503","51",
"936421.0000000","133943.0000000","Crown Castle NG","Tallman St.","Barclay Ave.","Lipsett Ave.","Staten_Island","UTILITY",,,,,"10312","503","51",
"937200.0000000","132293.0000000","Crown Castle NG","Barclay Ave.","Noel St.","Tyndale Ave.","Staten_Island","UTILITY",,,,,"10312","503","51",
"931044.0000000","132369.0000000","Crown Castle NG","Prall Ave","Billiou St","Deisius St","Staten_Island","UTILITY",,,,,"10312","503","51",
"938645.0000000","131819.0000000","Crown Castle NG","Hylan Blvd","Bennett Pl","Harold Ave","Staten_Island","UTILITY",,,,,"10312","503","51",
"932255.0000000","130751.0000000","Crown Castle NG","Huguenot Ave","Jansen St","Short Pl","Staten_Island","UTILITY",,,,,"10312","503","51",
"934171.0000000","130062.0000000","Crown Castle NG","Jarvis Ave","Edith Ave","Arbutus Ave","Staten_Island","UTILITY",,,,,"10312","503","51",
"932587.0000000","129525.0000000","Crown Castle NG","Edith Ave","Irvington St","Huguenot Ave","Staten_Island","UTILITY",,,,,"10312","503","51",
"929819.0000000","135730.0000000","Crown Castle NG","Ramona Ave","Huguenot Ave","Ellsworth Ave","Staten_Island","UTILITY",,,,,"10312","503","51",
"937675.0000000","133193.0000000","Crown Castle NG","Holdridge Ave","Weaver St","Shirley Ave","Staten_Island","UTILITY",,,,,"10312","503","51",
"930107.0000000","133819.0000000","Crown Castle NG","Drumgoole Rd E","Ellsworth ave","Huguenot Ave","Staten_Island","UTILITY",,,,,"10312","503","51",
"937749.0000000","135775.0000000","Crown Castle NG","Oakdale St","Seidman Ave","Woods of Arden Rd","Staten_Island","UTILITY",,,,,"10312","503","51",
"935554.0000000","141613.0000000","Crown Castle NG","Drumgoole Rd E","Monterey Ave","Marne Ave","Staten_Island","UTILITY",,,,,"10312","503","51",
"923378.0000000","132184.0000000","Crown Castle NG","Churchill Ave","Ambassador Ln","Ambassador Ln","Staten_Island","UTILITY",,,,,"10309","503","51",
"927384.0000000","134885.0000000","ZenFi","Ramona Ave","Foster Rd","Vernon Ave","Staten_Island","UTILITY",,,,,"10309","503","51",
"927633.0000000","132958.0000000","Crown Castle NG","Drumgoole Rd E","Foster Rd","Parkwood Ave","Staten_Island","UTILITY",,,,,"10309","503","51",
"925576.0000000","139478.0000000","ZenFi","Rossville Av","Wood Ct","Balsam Pl","Staten_Island","UTILITY",,,,,"10309","503","51",
"922210.0000000","133265.0000000","ZenFi","Englewood Av","Veterans Rd E","Veterans Rd W","Staten_Island","UTILITY",,,,,"10309","503","51",
"925853.0000000","137669.0000000","ZenFi","Hemlock St","Mason Blvd","Correll Ave","Staten_Island","UTILITY",,,,,"10309","503","51",
"925498.0000000","136250.0000000","ZenFi","Wieland Av","Elks Pl","Maguire Av","Staten_Island","UTILITY",,,,,"10309","503","51",
"928215.0000000","134183.0000000","ZenFi","Vernon Av","Darlington Av","Edgegrove Av","Staten_Island","UTILITY",,,,,"10309","503","51",
"923710.0000000","138295.0000000","ZenFi","Malvine Av","Bloomingdale Rd","Ashley Ln","Staten_Island","UTILITY",,,,,"10309","503","51",
"925331.0000000","134829.0000000","ZenFi","Maguire Av","Rensselaer Av","Santa Monica Ln","Staten_Island","UTILITY",,,,,"10309","503","51",
"926240.0000000","135038.0000000","Crown Castle NG","Lenevar Ave","Rensselaer Ave","Sheldon Ave","Staten_Island","UTILITY",,,,,"10309","503","51",
"925131.0000000","141030.0000000","Crown Castle NG","Rossville Ave","Poplar Ave","Aaron Ln","Staten_Island","UTILITY",,,,,"10309","503","51",
"923062.0000000","136779.0000000","Crown Castle NG","Harris Ln","Crabtree Ave","Bloomingdale Rd.","Staten_Island","UTILITY",,,,,"10309","503","51",
"928155.0000000","136581.0000000","Crown Castle NG","Marcy Ave","Stafford Ave","Ramapo Ave","Staten_Island","UTILITY",,,,,"10309","503","51",
"924590.0000000","136565.0000000","Crown Castle NG","Woodrow Rd.","Winant Ave.","Brookside Loop","Staten_Island","UTILITY",,,,,"10309","503","51",
"922075.0000000","134759.0000000","Crown Castle NG","Veterans Rd E","Sharrotts Rd","Pheasant Ln","Staten_Island","UTILITY",,,,,"10309","503","51",
"923634.0000000","133178.0000000","Crown Castle NG","Bloomingdale Rd","Hargold Ave","Englewood Ave","Staten_Island","UTILITY",,,,,"10309","503","51",
"922467.0000000","133166.0000000","Crown Castle NG","Englewood Ave.","Gladwin St.","Veteran Rd. E","Staten_Island","UTILITY",,,,,"10309","503","51",
"924004.0000000","131001.0000000","Crown Castle NG","Outerbridge Ave.","Dunham St.","Bloomingdale Rd.","Staten_Island","UTILITY",,,,,"10309","503","51",
"925146.0000000","130912.0000000","Crown Castle NG","Goff Ave","Vogel Pl","Amboy Rd.","Staten_Island","UTILITY",,,,,"10309","503","51",
"928109.0000000","130605.0000000","Crown Castle NG","Waterbury Ave","Seguine Ave","Bayview Ave","Staten_Island","UTILITY",,,,,"10309","503","51",
"922222.0000000","130045.0000000","Crown Castle NG","S Service Road","Pleasant plains Ave","Gaynor St","Staten_Island","UTILITY",,,,,"10309","503","51",
"923672.0000000","129054.0000000","Crown Castle NG","Amboy Rd","Bedell St","Georgia CT","Staten_Island","UTILITY",,,,,"10309","503","51",
"929685.0000000","128616.0000000","Crown Castle NG","Hylan Blvd","Ormsby Ave.","Holton Ave.","Staten_Island","UTILITY",,,,,"10309","503","51",
"925322.0000000","128255.0000000","Crown Castle NG","Kenneth Pl","Cordelia Ave","Sharrott Rd","Staten_Island","UTILITY",,,,,"10309","503","51",
"927251.0000000","128078.0000000","Crown Castle NG","Vail Ave","Everett Ave","Burton Ave","Staten_Island","UTILITY",,,,,"10309","503","51",
"921980.0000000","124614.0000000","Crown Castle NG","Hylan Blvd","Richard Ave","Butler Blvd","Staten_Island","UTILITY",,,,,"10309","503","51",
"927133.0000000","136676.0000000","Crown Castle NG","Wieland Ave","Alverson ave","Foster Ave","Staten_Island","UTILITY",,,,,"10309","503","51",
"922381.0000000","136057.0000000","Crown Castle NG","Claypit Rd","Red Cedar Ln","Veteran Rd. E","Staten_Island","UTILITY",,,,,"10309","503","51",
"923000.0000000","135215.0000000","Crown Castle NG","Sharrotts Rd","White Oak Ln","Sharrotts Ln","Staten_Island","UTILITY",,,,,"10309","503","51",
"925791.0000000","139584.0000000","Crown Castle NG","Selkirk St","Rossville Ave.","Alverson Ave","Staten_Island","UTILITY",,,,,"10309","503","51",
"919690.0000000","130483.0000000","Crown Castle NG","Boscombe Ave","West Shore Expy Exit","Tyrellan Ave","Staten_Island","UTILITY",,,,,"10309","503","51",
"929555.0000000","127069.0000000","Crown Castle NG","Seguine Ave","Wilbur St","Hank Pl","Staten_Island","UTILITY",,,,,"10309","503","51",
"923757.0000000","135506.0000000","Crown Castle NG","Bloomingdale Rd","Marisa Cir","Clay Pit Rd","Staten_Island","UTILITY",,,,,"10309","503","51",
"917263.0000000","127611.0000000","ZenFi","Arthur Kill Rd","Lion St","Barnard Av","Staten_Island","UTILITY",,,,,"10307","503","51",
"915180.0000000","122770.0000000","ZenFi","Hylan Blvd","Finlay St","Aspinwall St","Staten_Island","UTILITY",,,,,"10307","503","51",
"917253.0000000","121588.0000000","ZenFi","Manhattan St","Billop Av","Clermont Av","Staten_Island","UTILITY",,,,,"10307","503","51",
"916266.0000000","126754.0000000","ZenFi","Orchard Av","Dead End","Fisher Av","Staten_Island","UTILITY",,,,,"10307","503","51",
"917469.0000000","126573.0000000","ZenFi","Brehaut Av","Craig Av","Amboy Rd","Staten_Island","UTILITY",,,,,"10307","503","51",
"916356.0000000","127197.0000000","ZenFi","Arthur Kill Rd","Fisher Av","Bernard Av","Staten_Island","UTILITY",,,,,"10307","503","51",
"915428.0000000","126472.0000000","ZenFi","Arthur Kill Rd","Girard St","Yetman Av","Staten_Island","UTILITY",,,,,"10307","503","51",
"917191.0000000","123292.0000000","ZenFi","Hylan Blvd","Yetman Av","Rockaway Av","Staten_Island","UTILITY",,,,,"10307","503","51",
"917810.0000000","122529.0000000","ZenFi","Loretto St","Clermont Av","Forest Ln","Staten_Island","UTILITY",,,,,"10307","503","51",
"916399.0000000","126086.0000000","Crown Castle NG","Craig Ave","Wood Ave","Lee Ave","Staten_Island","UTILITY",,,,,"10307","503","51",
"920135.0000000","124735.0000000","Crown Castle NG","Page Ave","Bartow Ave","Camden Ave","Staten_Island","UTILITY",,,,,"10307","503","51",
"918900.0000000","124641.0000000","Crown Castle NG","Kathleen Ct","Sylvan Ct","Joline Ave","Staten_Island","UTILITY",,,,,"10307","503","51",
"916029.0000000","124088.0000000","Crown Castle NG","Chelsea St","Shore Rd","Amboy Rd.","Staten_Island","UTILITY",,,,,"10307","503","51",
"914898.0000000","122706.0000000","Crown Castle NG","Hylan Blvd","Connecticut St","Finlay St","Staten_Island","UTILITY",,,,,"10307","503","51",
"917249.0000000","122612.0000000","Crown Castle NG","Yetman Ave","Clermont Ave","Hylan Blvd","Staten_Island","UTILITY",,,,,"10307","503","51",
"919102.0000000","122223.0000000","Crown Castle NG","Joline Ln.","Joline Ave.","Robinson Beach","Staten_Island","UTILITY",,,,,"10307","503","51",
"917771.0000000","123992.0000000","Crown Castle NG","George St","Sprague Ave","Fayann Ln","Staten_Island","UTILITY",,,,,"10307","503","51",
"917656.0000000","125313.0000000","Crown Castle NG","Sanford St","Sprague Rd","na","Staten_Island","UTILITY",,,,,"10307","503","51",
"916043.0000000","122999.0000000","Mobilitie I","Hylan blvd","Main st","Swinnerton St","Staten_Island","UTILITY",,,,,"10307","503","51",
"917816.0000000","123155.0000000","Mobilitie I","Sunset Lane","Seacrest Lane","Sunset Lane","Staten_Island","UTILITY",,,,,"10307","503","51",
"938969.0000000","155479.0000000","ZenFi","Travis Ave","Richmond Ave","Draper Pl","Staten_Island","UTILITY",,,,,"10314","502","51",
"938068.0000000","153584.0000000","Crown Castle NG","Richmond Hill Rd","Richmond Ave","Country Dr W","Staten_Island","UTILITY",,,,,"10314","502","51",
"937355.0000000","152694.0000000","Crown Castle NG","Richmond Ave","Richmond Hill Rd","Platinum Ave","Staten_Island","UTILITY",,,,,"10314","502","51",
"939353.0000000","155297.0000000","Mobilitie I","Steinway Avenue","Travis Avenue","Saxon Avenue","Staten_Island","CITY",,,,,"10314","502","51",
"991257.0000000","174234.0000000","ZenFi","Church Avenue","Ocean Parkway","East 5th Street","Brooklyn","CITY",,,,,"11218","312","39",
"990687.0000000","173514.0000000","ExteNet I","Beverley Rd","E 4th St","E 3rd St","Brooklyn","CITY",,,,,"11218","312","39",
"991589.0000000","171935.0000000","Extenet II","Ocean Pkwy","Cortelyou Rd","Ave C","Brooklyn","CITY",,,,,"11218","312","39",
"990639.0000000","170840.0000000","Extenet II","Ditmas Ave","E 2nd St","McDonald Ave","Brooklyn","CITY",,,,,"11218","312","39",
"990184.0000000","174385.0000000","Mobilitie II","Albemarle Road","E 2nd Street","E 3rd Street","Brooklyn","CITY",,,,,"11218","312","39",
"988916.0000000","171297.0000000","ExteNet I","15th Ave","41st St","42nd St","Brooklyn","CITY",,,,,"11219","312","39",
"987238.0000000","172631.0000000","ExteNet I","41st St","12th Ave","13th Ave","Brooklyn","CITY",,,,,"11219","312","39",
"987447.0000000","171867.0000000","Extenet II","13th Ave","43rd St","42nd St","Brooklyn","UTILITY",,,,,"11219","312","39",
"986136.0000000","172900.0000000","Mobilitie I","Fort Hamilton Parkway","43rd Street","42nd Street","Brooklyn","CITY",,,,,"11219","312","39",
"987978.0000000","171367.0000000","Mobilitie II","14th Ave","43rd St","44th St","Brooklyn","CITY",,,,,"11219","312","39",
"992206.0000000","185502.0000000","ExteNet I","FLATBUSH AVE","8TH AVE","ST. JOHNS S PL.","Brooklyn","CITY",,,,,"11238","308","39",
"985257.0000000","190917.0000000","ExteNet I","ATLANTIC AVE","HENRY ST","HICKS ST","Brooklyn","CITY","Atlantic Avenue BID","Cobble Hill Historic District",,,"11201","306","39",
"985666.0000000","190293.0000000","Extenet II","CLINTON ST","AMITY ST","PACIFIC ST","Brooklyn","CITY",,"Cobble Hill Historic District",,,"11201","306","39",
"984537.0000000","190141.0000000","Mobilitie II","Hicks St","Warren St","Congress St","Brooklyn","CITY",,"Cobble Hill Historic District",,,"11201","306","39",
"989014.0000000","186091.0000000","Extenet II","4th Ave","Union St","Sackett St","Brooklyn","CITY",,,,,"11217","306","39",
"990054.0000000","186951.0000000","Mobilitie II","Baltic Street","Gregory Place","5th Avenue","Brooklyn","CITY",,,,,"11217","306","39",
"990732.0000000","187835.0000000","Extenet II","5TH AVE","DEAN ST","FLATBUSH AVE","Brooklyn","CITY","North Flatbush BID",,,,"11217","306","39",
"990035.0000000","186476.0000000","Extenet II","5TH AVE","ST JOHNS","DOUGLAS ST","Brooklyn","CITY","Park Slope 5th Avenue BID",,,,"11217","306","39",
"990890.0000000","186329.0000000","Extenet II","6TH AVE","STERLING PL","PARK PL","Brooklyn","CITY",,"Park Slope Historic District Extension II",,,"11217","306","39",
"990348.0000000","187099.0000000","Extenet II","5TH AVE","WARREN ST","BALTIC ST","Brooklyn","CITY","Park Slope 5th Avenue BID",,,,"11217","306","39",
"990810.0000000","187864.0000000","Extenet II","FLATBUSH AVE","5TH AVE","DEAN ST","Brooklyn","CITY","North Flatbush BID",,,,"11217","306","39",
"991783.0000000","184663.0000000","Mobilitie II","8th Avenue","Union Street","Berkeley Place","Brooklyn","CITY",,"Park Slope Historic District",,,"11217","306","39",
"991055.0000000","187361.0000000","Mobilitie II","Bergen Street","Flatbush Avenue","5 Avenue","Brooklyn","CITY","North Flatbush BID",,,,"11217","306","39",
"991536.0000000","185988.0000000","Mobilitie II","7th Ave","Sterling Pl","Park Pl","Brooklyn","CITY",,"Park Slope Historic District",,,"11217","306","39",
"986559.0000000","187033.0000000","ExteNet I","President St","Hoyt St","Bond St","Brooklyn","CITY",,,,"MS 442","11231","306","39",
"984779.0000000","184920.0000000","ExteNet I","Smith St","Garnet St","W 9th St","Brooklyn","CITY",,,,,"11231","306","39",
"983680.0000000","186587.0000000","ExteNet I","Henry St","Coles St","Hamilton Ave","Brooklyn","CITY",,,,,"11231","306","39",
"983865.0000000","188431.0000000","Extenet II","Brooklyn Queens Expy","Union St","Hicks St","Brooklyn","CITY",,,,,"11231","306","39",
"986777.0000000","186368.0000000","Extenet II","Bond St","1st St","Carroll St","Brooklyn","UTILITY",,,,,"11231","306","39",
"984634.0000000","187591.0000000","Mobilitie II","Clinton Street","Carroll Street","1st Place","Brooklyn","CITY",,,,,"11231","306","39",
"986666.0000000","187509.0000000","Mobilitie I","Hoyt Street","Sackett Street","Union Street","Brooklyn","CITY",,,,,"11231","306","39",
"986230.0000000","186050.0000000","Mobilitie I","3rd Street","Hoyt Street","Bond Street","Brooklyn","CITY",,,,,"11231","306","39",
"984657.0000000","185964.0000000","Mobilitie I","Court Street","Luquer Street","Nelson Street","Brooklyn","CITY",,,,,"11231","306","39",
"986542.0000000","187345.0000000","Extenet II","HOYT ST","UNION ST","SACKETT ST","Brooklyn","CITY",,,,,"11231","306","39",
"982755.0000000","188608.0000000","Mobilitie I","Van Brunt St","President St","Union St","Brooklyn","UTILITY",,,"Mother Cabrini Park",,"11231","306","39",
"986819.0000000","182531.0000000","ZenFi","4th Avenue","13th Street","14th Street","Brooklyn","CITY",,,,"PS 124 SILAS B DUTCHER","11215","306","39",
"985702.0000000","183776.0000000","ExteNet I","2nd Ave","12 St","11 St","Brooklyn","CITY",,,,,"11215","306","39",
"989738.0000000","182901.0000000","ExteNet I","7th Ave","6 St","7 St","Brooklyn","CITY",,,,,"11215","306","39",
"989157.0000000","184876.0000000","ExteNet I","5th Ave","1st St","Garfield Pl","Brooklyn","CITY","Park Slope 5th Avenue BID",,,,"11215","306","39",
"987853.0000000","184159.0000000","ExteNet I","4th Ave","6th St","5th St","Brooklyn","CITY",,,,,"11215","306","39",
"990944.0000000","181895.0000000","ExteNet I","7th St","Prospect Park W","8th Ave","Brooklyn","CITY",,"Park Slope Historic District",,,"11215","306","39",
"991557.0000000","182863.0000000","ExteNet I","Prospect Park West","2nd St","3rd St","Brooklyn","CITY",,"Park Slope Historic District",,,"11215","306","39",
"991918.0000000","183431.0000000","Extenet II","Prospect Park W","Garfield Pl","Montgomery Pl","Brooklyn","CITY",,,,,"11215","306","39",
"990526.0000000","181234.0000000","Extenet II","Prospect Park W","10th St","9th St","Brooklyn","CITY",,"Park Slope Historic District Extension",,,"11215","306","39",
"990063.0000000","181839.0000000","Mobilitie II","8th Avenue","9th Street","8th Street","Brooklyn","CITY",,"Park Slope Historic District Extension",,,"11215","306","39",
"990396.0000000","182479.0000000","Mobilitie II","8th Avenue","6th Street","7th Street","Brooklyn","CITY",,,,,"11215","306","39",
"991081.0000000","183950.0000000","Mobilitie II","Garfield Place","Fiske Place","8th Avenue","Brooklyn","CITY",,"Park Slope Historic District",,,"11215","306","39",
"988512.0000000","180969.0000000","Mobilitie I","7th Avenue","15th Street","14th Street","Brooklyn","CITY",,"Park Slope Historic District Extension",,,"11215","306","39",
"990321.0000000","183831.0000000","Mobilitie I","7th Avenue","1st Street","2nd Street","Brooklyn","CITY",,,,"PS 321 WILLIAM PENN","11215","306","39",
"987874.0000000","182850.0000000","Mobilitie I","5th Avenue","10th Street","11th Street","Brooklyn","CITY","Park Slope 5th Avenue BID",,,,"11215","306","39",
"987035.0000000","184305.0000000","Mobilitie I","3rd Avenue","7th Street","8th Street","Brooklyn","CITY",,,,,"11215","306","39",
"986765.0000000","183851.0000000","Mobilitie I","9th Street","3rd Avenue","4th Avenue","Brooklyn","CITY",,,,,"11215","306","39",
"989340.0000000","182300.0000000","ExteNet I","9TH ST","7TH AVE","6TH AVE","Brooklyn","CITY",,"Park Slope Historic District Extension",,,"11215","306","39",
"990463.0000000","184040.0000000","ExteNet I","7TH AVE","1ST ST","GARFIELD PL","Brooklyn","CITY",,,,,"11215","306","39",
"989543.0000000","185518.0000000","ExteNet I","5TH AVE","PRESIDENT ST","UNION ST","Brooklyn","CITY","Park Slope 5th Avenue BID",,,,"11215","306","39",
"988565.0000000","183960.0000000","ExteNet I","5TH AVE","5TH ST","6TH ST","Brooklyn","CITY","Park Slope 5th Avenue BID",,,,"11215","306","39",
"987183.0000000","183294.0000000","Mobilitie II","4th Avenue","10th St","11th St","Brooklyn","CITY",,,,,"11215","306","39",
"989089.0000000","183315.0000000","Mobilitie II","6th Ave","6th St","7th St","Brooklyn","CITY",,,,,"11215","306","39",
"991644.0000000","177745.0000000","Extenet II","Prospect Park SW","Vanderbilt St","Reeve Pl","Brooklyn","CITY",,,,,"11218","307","39",
"991573.0000000","176377.0000000","Mobilitie II","Ocean Parkway","Sherman St","Park Circle","Brooklyn","CITY",,,,,"11218","307","39",
"988482.0000000","180918.0000000","ExteNet I","7TH AVE","15TH ST","16TH ST","Brooklyn","CITY",,,,,"11215","307","39",
"1003474.0000000","184932.0000000","ExteNet I","Utica Ave","St Marks Ave","Bergen St","Brooklyn","CITY",,,,,"11213","308","36",
"1000390.0000000","184952.0000000","ExteNet I","Kingston Ave","St Marks Ave","Park Pl","Brooklyn","CITY",,,,"PS 289","11213","308","36",
"999606.0000000","184814.0000000","ExteNet I","Brooklyn Ave","Prospect Pl","Park Pl","Brooklyn","CITY",,,,"PS 138 ANNEX","11213","308","36",
"1000906.0000000","184122.0000000","Mobilitie II","Sterling Place","Virginia Pl","Albany Avenue","Brooklyn","CITY",,"Crown Heights North III Historic District",,,"11213","308","36",
"1004175.0000000","183247.0000000","Mobilitie II","Rochester Avenue","Lincoln Pl","St Johns Place","Brooklyn","CITY",,,,,"11213","308","36",
"1001257.0000000","185696.0000000","Mobilitie II","Albany Avenue","Dean Street","Pacific Stret","Brooklyn","CITY",,,,,"11213","308","36",
"1001233.0000000","185096.0000000","Mobilitie II","Albany Ave","St. Marks Ave","Bergen St","Brooklyn","CITY",,,,,"11213","308","36",
"1003542.0000000","186030.0000000","Mobilitie II","Atlantic Ave","Utica Ave","Schenectady Ave","Brooklyn","CITY",,,,,"11213","308","36",
"1001398.0000000","186184.0000000","Mobilitie I","Atlantic Ave","Albany Ave","Lewis Ave","Brooklyn","UTILITY",,,,,"11213","308","36",
"1004302.0000000","185706.0000000","Mobilitie II","Rochester Avenue","Pacific Street","Dean Street","Brooklyn","CITY",,,,,"11233","308","36",
"995767.0000000","187290.0000000","Mobilitie I","Classon Avenue","Lefferts Place","Atlantic Avenue","Brooklyn","CITY",,,,,"11238","302","36",
"1000529.0000000","186363.0000000","Mobilitie II","Kingston Avenue","Atlantic Avenue","Herkimer Street","Brooklyn","CITY",,,,,"11213","303","36",
"1000881.0000000","193859.0000000","ExteNet I","Park Ave","Marcus Garvey Blvd","Broadway","Brooklyn","CITY",,,,,"11206","303","36",
"1001648.0000000","192274.0000000","Mobilitie I","Lewis Avenue","Hart Street","Pulaski St","Brooklyn","CITY",,,,,"11206","303","36",
"999227.0000000","192177.0000000","Mobilitie II","Tompkins Ave","Willoughby Ave","Hart St","Brooklyn","CITY",,,,,"11206","303","36",
"999051.0000000","193320.0000000","Mobilitie II","Tomkins Ave","Floyd St","Park Ave","Brooklyn","CITY",,,,,"11206","303","36",
"998467.0000000","191583.0000000","Mobilitie II","Marcy Ave","Pulaski St","Hart St","Brooklyn","CITY",,,,,"11206","303","36",
"1001026.0000000","193061.0000000","Mobilitie II","Myrtle Ave","Marcus Garvey Blvd","Lewis Ave","Brooklyn","CITY",,,,,"11206","303","36",
"996740.0000000","190445.0000000","Mobilitie II","Lafayette Avenue","Bedford Avenue","Nostrand Avenue","Brooklyn","CITY",,,,,"11205","303","36",
"996592.0000000","190956.0000000","Mobilitie II","Bedford Ave","Dekalb Ave","Kosciuszko St","Brooklyn","CITY",,,,,"11205","303","36",
"1003339.0000000","191781.0000000","Mobilitie II","Malcolm X Boulevard","Kosciuszko Street","Dekalb Aveue","Brooklyn","CITY",,,,,"11221","303","36",
"1002898.0000000","189255.0000000","Mobilitie II","Stuyvesant Avenue","Putnam Avenue","Madison Street","Brooklyn","CITY",,,,,"11221","303","36",
"1003755.0000000","189318.0000000","Mobilitie II","Malcolm X Blvd","Putnam Ave","Jefferson Ave","Brooklyn","CITY",,,,,"11221","303","36",
"999610.0000000","189289.0000000","Mobilitie II","Monroe Street","Tompkins Avenue","Marcy Avenue","Brooklyn","CITY",,,,,"11216","303","36",
"997825.0000000","187310.0000000","Mobilitie I","Arlington Place","Macon Street","Fulton Street","Brooklyn","CITY","Bed-Stuy Gateway BID",,,,"11216","303","36",
"998219.0000000","187387.0000000","Mobilitie II","Nostrand Avenue","Macon Street","Fulton Street","Brooklyn","CITY","Bed-Stuy Gateway BID",,,,"11216","303","36",
"996889.0000000","187028.0000000","Mobilitie II","Brevoort Pl","Bedford Pl","Frankling Avenue","Brooklyn","CITY",,,,,"11216","303","36",
"999692.0000000","188755.0000000","Mobilitie II","Putnam Ave","Tompkins Ave","Marcy Ave","Brooklyn","CITY",,,,,"11216","303","36",
"998971.0000000","188587.0000000","Mobilitie II","Marcy Ave","Putnam Ave","Jefferson Ave","Brooklyn","CITY",,"Bedford Historic District",,,"11216","303","36",
"1004614.0000000","186414.0000000","Mobilitie II","Herkimer Street","Suydam Place","Rochester Avenue","Brooklyn","CITY",,,"Garden",,"11233","303","36",
"1002209.0000000","188333.0000000","Mobilitie II","Lewis Avenue","Halsey Street","Hancock Street","Brooklyn","CITY",,,,,"11233","303","36",
"1001632.0000000","186978.0000000","ExteNet I","Marcus Garvey Blvd","Fulton St","Decatur St","Brooklyn","CITY",,,,,"11233","303","36",
"1002380.0000000","187470.0000000","Mobilitie I","Lewis Avenue","Decatur Street","Bainbridge Street","Brooklyn","CITY",,"Stuyvesant Heights Historic District",,,"11233","303","36",
"1004720.0000000","188170.0000000","Mobilitie I","Patchen Avenue","MacDonough Street","Macon St","Brooklyn","CITY",,,,,"11233","303","36",
"1011731.0000000","252337.0000000","ZenFi","Field Place","Morris Avenue","Creston Avenue","Bronx","CITY",,,,"ACADEMY FOR PERSONAL LEADERSHIP AND EXCELLENCE","10468","205","14",
"1011417.0000000","251944.0000000","Crown Castle Fiber","Morris Ave","E 183rd St","Field Pl","Bronx","CITY",,,,,"10468","205","14",
"1011806.0000000","252949.0000000","Crown Castle Solutions","Morris Ave","E 184th St","E Fordham Rd","Bronx","CITY",,,,,"10468","205","14",
"1012292.0000000","253221.0000000","Mobilitie II","E 188th St","Creston Ave","Grand Concourse","Bronx","CITY",,,,,"10468","205","14",
"1010590.0000000","251149.0000000","ZenFi","Cameron Pl","Jerome Ave","Walton Ave","Bronx","CITY",,,,,"10453","205","14",
"1007835.0000000","248117.0000000","ZenFi","Grand Ave","W 175th St","W 174th St","Bronx","CITY",,,,,"10453","205","14",
"1008304.0000000","250794.0000000","ZenFi","Andrews Av S","W 179 St","W Burnside Av","Bronx","UTILITY",,,,,"10453","205","14",
"1010463.0000000","252161.0000000","ZenFi","W 183rd st","Davidson Ave","Grand Ave","Bronx","UTILITY",,,,,"10453","205","14",
"1009583.0000000","251707.0000000","ZenFi","Aqueduct Ave","Clinton Pl","W 181st St","Bronx","UTILITY",,,,,"10453","205","14",
"1008290.0000000","248289.0000000","ZenFi","Davidson Ave","W 176th St","W Clifford Pl","Bronx","UTILITY",,,,,"10453","205","14",
"1010241.0000000","251116.0000000","ZenFi","W 181st St","Jerome Ave","Davidson Ave","Bronx","UTILITY",,,,,"10453","205","14",
"1007592.0000000","251135.0000000","ZenFi","Osborne Pl","W 179th St","W 180th St","Bronx","UTILITY",,,,,"10453","205","14",
"1008455.0000000","249633.0000000","ZenFi","Harrison Ave","Morton Pl","W Burnside Ave","Bronx","UTILITY",,,,,"10453","205","14",
"1006287.0000000","248853.0000000","ZenFi","Popham Ave","W 176th St","W 175th St","Bronx","UTILITY",,,,,"10453","205","14",
"1006469.0000000","247587.0000000","ZenFi","Nelson Ave","Featherbed Ln","Plimpton Ave","Bronx","UTILITY",,,,,"10453","205","14",
"1010548.0000000","250428.0000000","ZenFi","Morris Ave","Burnside Ave","181st St","Bronx","UTILITY",,,,,"10453","205","14",
"1009779.0000000","249254.0000000","ZenFi","Morris Avenue","East Tremont Avenue","East 177th Street","Bronx","CITY",,,,,"10453","205","14",
"1010751.0000000","251738.0000000","ZenFi","Jerome Avenue","Buchanan Place","East 182rd Street","Bronx","CITY",,,,,"10453","205","14",
"1010487.0000000","251626.0000000","ZenFi","West 182nd Street","Jerome Avenue","Davidson Avenue","Bronx","CITY",,,,,"10453","205","14",
"1010219.0000000","251464.0000000","ZenFi","Clinton Place","Davidson Avenue","Grand Avenue","Bronx","CITY",,,,,"10453","205","14",
"1007612.0000000","250472.0000000","ZenFi","West Burnside Avenue","Phelan Place","Loring Place South","Bronx","CITY",,,,,"10453","205","14",
"1006209.0000000","248332.0000000","ZenFi","West 175th Street","Montgomery Avenue","Popham Avenue","Bronx","CITY",,,,,"10453","205","14",
"1006257.0000000","247779.0000000","ZenFi","Dr Martin Luther King Jr Boulevard","West 174th Street","Featherbed Lane","Bronx","CITY",,,,,"10453","205","14",
"1007828.0000000","247756.0000000","ZenFi","West 174th Street","Davidson Avenue","Grand Avenue","Bronx","CITY",,,,,"10453","205","14",
"1010432.0000000","250632.0000000","ZenFi","Walton Avenue","East 181st Street","East Burnside Avenue","Bronx","CITY",,,,"MS 279 X","10453","205","14",
"1010546.0000000","250069.0000000","ZenFi","East Burnside Avenue","Creston Avenue","Morris Avenue","Bronx","CITY",,,,,"10453","205","14",
"1010023.0000000","248473.0000000","ZenFi","Grand Concourse","Mount Hope Place","East 177 Street","Bronx","CITY",,,,,"10453","205","14",
"1011154.0000000","251992.0000000","ZenFi","East 183rd Street","Walton Avenue","Morris Avenue","Bronx","CITY",,,,,"10453","205","14",
"1008208.0000000","248699.0000000","Crown Castle Solutions","Grand Ave","W 176th St","W Tremont Ave","Bronx","CITY",,,,,"10453","205","14",
"1007752.0000000","248290.0000000","Crown Castle Solutions","W 175th St","Grand Ave","Macombs Rd","Bronx","CITY",,,,,"10453","205","14",
"1009029.0000000","248021.0000000","Crown Castle Solutions","Walton Ave","Henwood Pl","E 175th St","Bronx","CITY",,,,,"10453","205","14",
"1011504.0000000","250978.0000000","ExteNet I","Grand Concourse","E 182nd St","E 181st St","Bronx","CITY",,,,,"10453","205","14",
"1006710.0000000","249435.0000000","ExteNet I","Popham Ave","Palisade Pl","W 176th St","Bronx","CITY",,,,"P S 109","10453","205","14",
"1010561.0000000","249418.0000000","Mobilitie I","Grand Concourse","E 179th Street","Bush Street","Bronx","CITY",,,,,"10453","205","14",
"1007862.0000000","250470.0000000","Extenet II","Loring Pl S","W Burnside ave","W 179th st","Bronx","UTILITY",,,,,"10453","205","14",
"1008445.0000000","250830.0000000","Crown Castle NG","W 179th St","Andrews Ave S","University Ave","Bronx","UTILITY",,,,,"10453","205","14",
"1008517.0000000","251149.0000000","Crown Castle NG","W 180th St","Andrews Ave S","Loring Pl S","Bronx","UTILITY",,,,,"10453","205","14",
"1008374.0000000","249607.0000000","Crown Castle NG","Harrison Ave","Kingsland Plaza","Mortons Pl","Bronx","UTILITY",,,,,"10453","205","14",
"1007629.0000000","251369.0000000","Crown Castle NG","Osborne Pl","W 180th St","W 179th St","Bronx","UTILITY",,,,,"10453","205","14",
"1010136.0000000","250679.0000000","Crown Castle NG","Jerome Ave","E Burnside Ave","E 181st St","Bronx","CITY",,,,,"10453","205","14",
"1006826.0000000","247890.0000000","Mobilitie II","Nelson Ave","W 174th St","Brandt Pl","Bronx","CITY",,,,,"10453","205","14",
"1006281.0000000","248337.0000000","Mobilitie II","W 175th St","Mongomery St","Andrews Ave S","Bronx","CITY",,,,,"10453","205","14",
"1005885.0000000","248016.0000000","Mobilitie II","Popham Ave","W 174th St","W 175th St","Bronx","CITY",,,,,"10453","205","14",
"1010839.0000000","250750.0000000","Mobilitie I","E 181st","Morris Ave","Creston Ave","Bronx","UTILITY",,,"Morris Garden",,"10453","205","14",
"1006847.0000000","247561.0000000","ZenFi","Featherbed La","Jesup Av","Shakespeare Av","Bronx","UTILITY",,,,,"10452","205","14",
"1007279.0000000","247647.0000000","ZenFi","Macombs Road","Grand Avenue","Featherbed Lane","Bronx","CITY",,,,,"10452","205","14",
"1006604.0000000","247237.0000000","ZenFi","Cross Bronx Expressway Service Road","Shakespeare Avenue","Jesup Avenue","Bronx","CITY",,,,,"10452","205","14",
"1006915.0000000","247565.0000000","Crown Castle NG","Jesup Ave","Featherbed Ln","Cross Bronx Expy","Bronx","UTILITY",,,,,"10452","205","14",
"1006184.0000000","247586.0000000","Mobilitie II","Featherbed Ln","Plimpton Ave","University Ave","Bronx","CITY",,,,,"10452","205","14",
"1009557.0000000","254483.0000000","ZenFi","Sedgwick Ave","Bailey Ave","Fordham Hill Oval","Bronx","UTILITY",,,,,"10468","207","14",
"1009996.0000000","255520.0000000","ZenFi","Sedgwick Ave","Bailey Ave","W KingsBridge","Bronx","UTILITY",,,,,"10468","207","14",
"1009216.0000000","252705.0000000","ZenFi","West 183rd Street","Loring Place North","Loring Place North","Bronx","CITY",,,,,"10468","207","14",
"1009993.0000000","254216.0000000","ZenFi","Webb Avenue","Devoe Terrace","Father Zieser Place","Bronx","CITY",,,,,"10468","207","14",
"1010898.0000000","252531.0000000","ZenFi","North Street","Davidson Avenue","Jerome Avenue","Bronx","CITY",,,,,"10468","207","14",
"1013887.0000000","256763.0000000","Crown Castle Solutions","Jerome Ave","E198th St","Minerva Pl","Bronx","CITY",,,,,"10468","207","14",
"1013180.0000000","255575.0000000","Crown Castle Solutions","Morris Ave","E 196th St","E Kingsbridge Rd","Bronx","CITY",,,,,"10468","207","14",
"1014963.0000000","256846.0000000","Crown Castle Solutions","Grand Councourse","E 199th St","Minerva Pl","Bronx","CITY",,,,,"10468","207","14",
"1013253.0000000","255219.0000000","Crown Castle Solutions","Creston Ave","E Kingsbridge Rd","E 196th St","Bronx","CITY",,,,,"10468","207","14",
"1011581.0000000","254171.0000000","Crown Castle Solutions","Davidson Ave","W 190th St","W 192nd St","Bronx","CITY",,,,,"10468","207","14",
"1010162.0000000","253662.0000000","Crown Castle Solutions","W Fordham Rd","Andrews Ave N","Loring Pl N","Bronx","CITY",,,,,"10468","207","14",
"1013128.0000000","254656.0000000","ExteNet I","E 193rd St","Grand Concourse","Creston Ave","Bronx","CITY",,,,,"10468","207","14",
"1009836.0000000","253887.0000000","ExteNet I","Father Zeiser P","Webb ave","Devoe Terrace","Bronx","CITY",,,"Devoe Park",,"10468","207","14",
"1009528.0000000","252664.0000000","Mobilitie I","Andrews Avenue North","W 183rd Street","W Fordham Road","Bronx","CITY",,,,,"10468","207","14",
"1008939.0000000","252827.0000000","Mobilitie I","W 183rd Street","Sedgwick Avenue","Loring Place North","Bronx","CITY",,,,,"10468","207","14",
"1009879.0000000","255326.0000000","Mobilitie I","Sedgwick Ave","Bailey Ave","W Kingsbridge","Bronx","UTILITY",,,,,"10468","207","14",
"1010664.0000000","252408.0000000","Mobilitie II","Davidson Ave","Evelyn Pl","North St","Bronx","CITY",,,,,"10468","207","14",
"1012448.0000000","253684.0000000","Mobilitie II","Creston Ave","E 190th St","E 191st St","Bronx","CITY",,,,,"10468","207","14",
"1008887.0000000","253168.0000000","Mobilitie II","Hampden Pl","W Fordham Rd","n/a (dead end)","Bronx","CITY",,,,,"10468","207","14",
"1009185.0000000","252081.0000000","ZenFi","Andrews Av N","W 183 Street","Hall of Fame Terrace","Bronx","UTILITY",,,,,"10453","207","14",
"1008967.0000000","252225.0000000","ZenFi","Loring  Pl North","Hall of Fame Terrace","W 183rd St","Bronx","UTILITY",,,,,"10453","207","14",
"1009714.0000000","252465.0000000","ZenFi","Dr Martin Luther King Jr Boulevard","West 183rd Street","Hall of Fame Terrace","Bronx","CITY",,,,,"10453","207","14",
"1009112.0000000","251975.0000000","Crown Castle NG","Hall of Fame Terrace","Andrews Ave N","Dr Martin Luther King Jr Blvd","Bronx","UTILITY",,,,,"10453","207","14",
"1008902.0000000","252203.0000000","Mobilitie II","Loring Pl N","Hall of Fame Terrace","W 183rd St","Bronx","CITY",,,,,"10453","207","14",
"1007489.0000000","246656.0000000","Crown Castle Solutions","Goble Pl","Jerome Ave","Inwood Ave","Bronx","CITY",,,,,"10452","204","14",
"1008084.0000000","246268.0000000","Crown Castle Solutions","Walton Ave","Rockwood St","Hawkstone St","Bronx","CITY",,,,,"10452","204","14",
"1011794.0000000","258998.0000000","ZenFi","Kingsbridge Terrace","Summit Pl","Perot St","Bronx","UTILITY",,,"Kingsbridge Heights Community Center",,"10463","208","14",
"1011614.0000000","258812.0000000","Crown Castle NG","Kingsbridge Terrace","Perot Ave","Albany Crescent","Bronx","UTILITY",,,,,"10463","208","14",
"1010855.0000000","257856.0000000","ZenFi","W 229th St","Heath Ave","Bailey Ave","Bronx","UTILITY",,,,,"10463","208","14",
"1012348.0000000","259288.0000000","ZenFi","Sedgwick Ave","Fort Independence St","Perot St","Bronx","UTILITY",,,,,"10463","208","14",
"1010128.0000000","258633.0000000","ZenFi","Exterior Street","Broadway","West 225th Street","Bronx","CITY",,,,,"10463","208","14",
"1010829.0000000","258501.0000000","Crown Castle NG","Bailey Ave","W 230th St","Albany Crescent","Bronx","UTILITY",,,,,"10463","208","14",
"1011696.0000000","258370.0000000","Mobilitie I","W 231st St","Sedgwick Ave","Dead End","Bronx","UTILITY",,,,,"10463","208","14",
"1010737.0000000","258534.0000000","Mobilitie II","W 230th St","Bailey Ave","Major Deegan Expressway","Bronx","CITY",,,,,"10463","208","14",
"1011678.0000000","257164.0000000","ZenFi","Webb Av","W 197th St","Reservoir Av","Bronx","UTILITY",,,,,"10468","208","14",
"1011942.0000000","257354.0000000","ZenFi","Claflin Avenue","West 197th Street","Reservoir Avenue","Bronx","CITY",,,,,"10468","208","14",
"1011855.0000000","256762.0000000","ZenFi","Claflin Avenue","West 197th Street","West 195th Street","Bronx","CITY",,,,,"10468","208","14",
"1011241.0000000","255828.0000000","Crown Castle Fiber","W Kingsbridge Rd","Webb Ave","Sedgwick Ave","Bronx","CITY",,,,,"10468","208","14",
"1011784.0000000","256355.0000000","Crown Castle NG","W 195th St","Claflin Ave","University Ave","Bronx","CITY",,,,,"10468","208","14",
"999482.0000000","182405.0000000","ExteNet I","Brooklyn Ave","President St","Carroll St","Brooklyn","CITY",,,,,"11213","309","35",
"1001820.0000000","182676.0000000","ExteNet I","Troy Ave","Union St","President St","Brooklyn","CITY",,,,,"11213","309","35",
"1003289.0000000","182347.0000000","ExteNet I","Utica Ave","President St","Union St","Brooklyn","CITY",,,,,"11213","309","35",
"996715.0000000","181759.0000000","ExteNet I","Montgomery St","Ludlam Pl","Stoddard Pl","Brooklyn","CITY",,,,,"11225","309","35",
"995749.0000000","181965.0000000","Mobilitie II","Montgomery Street","McKeever Place","Bedford Avenue","Brooklyn","CITY",,,,,"11225","309","35",
"997520.0000000","182024.0000000","Mobilitie II","Dearborn Ct","Crown Street","Montgomery Street","Brooklyn","CITY",,,,,"11225","309","35",
"997955.0000000","182709.0000000","Mobilitie II","Nostrand Avenue","President Street","Union Street","Brooklyn","CITY",,,,,"11225","309","35",
"999517.0000000","183546.0000000","Mobilitie I","Brooklyn Avenue","Lincoln Place","Eastern Parkway","Brooklyn","CITY",,"Crown Heights North II Historic District",,,"11213","308","35",
"1001869.0000000","183379.0000000","Mobilitie II","Troy Ave","Lincoln Pl","Eastern Parkway","Brooklyn","CITY",,,,,"11213","308","35",
"996099.0000000","185603.0000000","ExteNet I","St Marks Ave","Franklin Ave","Classon Ave","Brooklyn","CITY",,,,,"11238","308","35",
"992740.0000000","185493.0000000","ExteNet I","Vanderbuilt Ave","Sterling Pl","Plaza St E","Brooklyn","CITY",,,,,"11238","308","35",
"995381.0000000","185453.0000000","Extenet II","Classon Ave","Prospect Pl","Park Pl","Brooklyn","CITY",,,,,"11238","308","35",
"995472.0000000","185770.0000000","Mobilitie II","Classon Avenue","St. Marks Avenue","Prospect Place","Brooklyn","CITY",,,,,"11238","308","35",
"993763.0000000","186302.0000000","Mobilitie I","Underhill Avenue","St. Marks Avenue","Bergen Street","Brooklyn","CITY",,,,"PS 9","11238","308","35",
"995626.0000000","186429.0000000","Mobilitie I","Dean Street","Classon Avenue","Grand Avenue","Brooklyn","CITY",,,,,"11238","308","35",
"995205.0000000","184816.0000000","Mobilitie II","Classon Avenue","Sterling Place","St Johns Place","Brooklyn","CITY",,,,,"11238","308","35",
"996234.0000000","184877.0000000","Mobilitie II","Franklin Avenue","Park Pl","Sterling Place","Brooklyn","CITY",,,,,"11238","308","35",
"994556.0000000","184106.0000000","Mobilitie II","Eastern Parkway N Service Rd","Washington Ave","Underhill Ave","Brooklyn","CITY",,,"Eastern Parkway",,"11238","308","35",
"994383.0000000","185450.0000000","Mobilitie II","Washington Ave","Park Pl","Prospect Pl","Brooklyn","CITY",,,,,"11238","308","35",
"994488.0000000","184748.0000000","Mobilitie II","Washington Ave","St Johns Pl","Sterling Pl","Brooklyn","CITY",,,,,"11238","308","35",
"998793.0000000","184219.0000000","ExteNet I","New York Ave","Sterling Pl","St Johns Pl","Brooklyn","CITY",,"Crown Heights North II Historic District",,,"11216","308","35",
"996217.0000000","183902.0000000","ExteNet I","Lincoln Pl","St Francis Pl","Franklin Ave","Brooklyn","CITY",,,,,"11216","308","35",
"998011.0000000","183361.0000000","Mobilitie I","Eastern Parkway","Nostrand Avenue","New York Avenue","Brooklyn","CITY",,,"Eastern Parkway",,"11216","308","35","Eastern Parkway"
"998750.0000000","183571.0000000","Mobilitie II","New York Ave","Lincoln Pl","Eastern Parkway","Brooklyn","CITY",,"Crown Heights North II Historic District",,,"11216","308","35",
"996117.0000000","184295.0000000","Mobilitie II","Franklin Ave","St Johns Pl","Sterling Pl","Brooklyn","CITY",,,,,"11216","308","35",
"997808.0000000","184013.0000000","Mobilitie II","St Johns Pl","Nostrand Ave","Rogers Ave","Brooklyn","CITY",,,,,"11216","308","35",
"996696.0000000","184113.0000000","Mobilitie II","St Johns Pl","Bedford Ave","Franklin Ave","Brooklyn","CITY",,,,,"11216","308","35",
"993270.0000000","184383.0000000","Mobilitie II","Eastern Parkway","Underhill Avenue","Plaza Street East","Brooklyn","CITY",,,"Eastern Parkway",,"11238","355","35",
"989803.0000000","190593.0000000","ExteNet I","Dekalb Ave","Rockwell Pl","Hudson Ave","Brooklyn","CITY","MetroTech BID",,,,"11201","302","35",
"988603.0000000","194273.0000000","ExteNet I","SANDS ST","GOLD ST","JAY ST","Brooklyn","CITY",,,,,"11201","302","35",
"989702.0000000","190597.0000000","ExteNet I","DEKALB AVE","HUDSON AVE","ROCKWELL PL","Brooklyn","CITY","MetroTech BID",,,,"11201","302","35",
"988918.0000000","192396.0000000","Extenet II","Gold St","Johnson","PRINCE ST","Brooklyn","CITY",,,,,"11201","302","35",
"989958.0000000","190072.0000000","Mobilitie II","Fulton Street","Rockwell Pl","Hudson Avenue","Brooklyn","CITY","MetroTech BID",,,,"11201","302","35",
"990761.0000000","192235.0000000","Mobilitie II","Auburn Place","N Portland Avenue","St. Edwards Street","Brooklyn","CITY","Myrtle Avenue Brooklyn Partnership",,,,"11205","302","35",
"993274.0000000","192725.0000000","Mobilitie II","Park Avenue","Washington Avenue","Waverly Avenue","Brooklyn","CITY",,,,,"11205","302","35",
"990423.0000000","191936.0000000","Mobilitie II","Myrtle Avenue","St. Edwards Street","N Portland Avenue","Brooklyn","CITY","Myrtle Avenue Brooklyn Partnership",,,,"11205","302","35",
"994157.0000000","192224.0000000","Mobilitie II","Grand Avenue","Myrtle Avenue","Park Avenue","Brooklyn","CITY",,,,,"11205","302","35",
"992173.0000000","191241.0000000","Mobilitie I","Willoughby Avenue","Adelphi Street","Clermont Avenue","Brooklyn","CITY",,"Fort Greene Historic District",,"ARTS AND LETTERS SCHOOL","11205","302","35",
"993353.0000000","190471.0000000","Mobilitie II","Waverly Avenue","Dekalb Avenue","Lafayette Avenue","Brooklyn","CITY",,"Clinton Hill Historic District",,,"11205","302","35",
"993828.0000000","191379.0000000","Mobilitie I","Willoughby Avenue","Hall Street","Ryerson Street","Brooklyn","CITY",,,,,"11205","302","35",
"991636.0000000","191875.0000000","Mobilitie II","Myrtle Avenue","Carlton Avenue","N Portland Avenue","Brooklyn","CITY","Myrtle Avenue Brooklyn Partnership",,,,"11205","302","35",
"991656.0000000","192794.0000000","Mobilitie II","Carlton Ave","Park Ave","Myrtle Ave","Brooklyn","CITY",,,,,"11205","302","35",
"993170.0000000","193441.0000000","Mobilitie II","Washington Ave","Flushing Ave","Park Ave","Brooklyn","CITY",,,,,"11205","302","35",
"991755.0000000","193522.0000000","Mobilitie II","Flushing Ave","Adelphi St","Carlton Ave","Brooklyn","CITY",,,,,"11205","302","35",
"991533.0000000","188228.0000000","ExteNet I","S PORTLAND AVE","ATLANTIC AVE","S ELLIOTT PL","Brooklyn","CITY",,,,,"11217","302","35",
"990808.0000000","188972.0000000","ExteNet I","HANSON PL","FORT GREENE PL","ST FELIX ST","Brooklyn","CITY",,"Brooklyn Academy of Music Historic District",,,"11217","302","35",
"990390.0000000","190566.0000000","Extenet II","DEKALB AVE","ST FELIX ST","FORT GREENE PL","Brooklyn","CITY","MetroTech BID",,,,"11217","302","35",
"990554.0000000","188524.0000000","Extenet II","ATLANTIC AVE","FLATBUSH AVE","FORT GREENE PL","Brooklyn","CITY","MetroTech BID",,,,"11217","302","35",
"990016.0000000","189495.0000000","Mobilitie II","Lafayette Ave","Rockwell Pl","Flatbush Ave","Brooklyn","CITY","MetroTech BID",,"Brooklyn Bears Rockwell Pl Garden",,"11217","302","35",
"991383.0000000","189264.0000000","Mobilitie II","Fulton St","S Portland Ave","S Oxford St","Brooklyn","CITY","Fulton Area Business (FAB) Alliance",,,,"11217","302","35",
"991453.0000000","187878.0000000","Mobilitie II","6th Ave","Pacific St","Atlantic Ave","Brooklyn","CITY","North Flatbush BID",,,,"11217","302","35",
"995309.0000000","188863.0000000","Extenet II","Gates Ave","Irving Pl","Classon Ave","Brooklyn","CITY",,,,,"11238","302","35",
"995310.0000000","190226.0000000","Mobilitie I","Lafayette Avenue","Classon Avenue","Grand Avenue","Brooklyn","CITY",,,,,"11238","302","35",
"995480.0000000","189223.0000000","Mobilitie I","Classon Avenue","Quincy Street","Lexington Avenue","Brooklyn","CITY",,,,,"11238","302","35",
"992777.0000000","188595.0000000","Mobilitie I","Fulton Street","Clermont Avenue","Adelphi Street","Brooklyn","CITY","Fulton Area Business (FAB) Alliance",,,,"11238","302","35",
"993276.0000000","187710.0000000","Mobilitie II","Atlantic Avenue","Vanderbilt Avenue","Clinton Avenue","Brooklyn","CITY",,,,,"11238","302","35",
"995051.0000000","188870.0000000","Mobilitie II","Gates Ave","Downing St","Irving Pl","Brooklyn","CITY",,,,,"11238","302","35",
"996110.0000000","190137.0000000","Mobilitie I","Franklin Avenue","Clifton Place","Lafayette Avenue","Brooklyn","CITY",,,,,"11238","303","35",
"996052.0000000","187877.0000000","Mobilitie I","Claver Place","Jefferson Avenue","Fulton Street","Brooklyn","CITY",,,,,"11238","303","35",
"991191.0000000","187346.0000000","ExteNet I","Bergen St","Flatbush Ave","6th Ave","Brooklyn","CITY","North Flatbush BID",,,,"11217","306","35",
"991792.0000000","220723.0000000","Crown Castle NG","Center Dr","Nell Singer Lilac Walk","Terrace Dr","Manhattan","CITY",,,"Central Park",,"00083","164","6","Central Park"
"998018.0000000","229130.0000000","Crown Castle NG","5th Ave","E 108th St","E 107th St","Manhattan","CITY",,,,,"00083","164","6","Central Park"
"991532.0000000","219806.0000000","Crown Castle Fiber","Center Dr","East Dr","65th St Transverse","Manhattan","CITY",,,"Central Park",,"00083","164","6","Central Park"
"992152.0000000","221166.0000000","Crown Castle Solutions","Terrace Dr","Center Drive","East Drive","Manhattan","CITY",,,"Central Park",,"00083","164","6","Central Park"
"992444.0000000","219078.0000000","Crown Castle Solutions","5th Ave","E 65th St","E 64th St","Manhattan","CITY",,,,,"00083","164","6","Central Park"
"991146.0000000","219596.0000000","Crown Castle Solutions","Center Dr","East Drive","West Drive","Manhattan","CITY",,,"Central Park",,"00083","164","6","Central Park"
"996160.0000000","226821.0000000","ExteNet I","E 97 ST TRANVERSE","5 AVE","CENTRAL PARK WEST","Manhattan","CITY",,,"Central Park",,"00083","164","6","Central Park"
"996724.0000000","226798.0000000","ExteNet I","5 AVE","E 98 ST","E 97 ST","Manhattan","CITY",,,,,"00083","164","6","Central Park"
"997416.0000000","230049.0000000","ExteNet I","MALCOLM X BLVD","CENTRAL PK N","EAST DR","Manhattan","CITY",,,,,"00083","164","6","Central Park"
"997230.0000000","227710.0000000","ExteNet I","5 AVE","E 102 ST","E 101 ST","Manhattan","CITY",,,,,"00083","164","6","Central Park"
"996374.0000000","226409.0000000","ExteNet I","97 ST TRANSVERSE","5 AVE","EAST DRIVE","Manhattan","CITY",,,"Central Park",,"00083","164","6","Central Park"
"993546.0000000","226767.0000000","ExteNet I","CENTRAL PARK WEST","W 92 ST","W 93 ST","Manhattan","CITY",,,,,"00083","164","6","Central Park"
"996326.0000000","226070.0000000","ExteNet I","5 AVE","E 95 ST","E 94 ST","Manhattan","CITY",,,,,"00083","164","6","Central Park"
"995584.0000000","224745.0000000","ExteNet I","5 AVE","E 89 ST","E 90 ST","Manhattan","CITY",,,,,"00083","164","6","Central Park"
"991259.0000000","224633.0000000","ExteNet I","Columbus Ave","W 81st St","W 80th St","Manhattan","CITY","Columbus Avenue BID","Upper West Side/Central Park West Historic District",,,"10024","107","6",
"990841.0000000","226720.0000000","Mobilitie II","Broadway","W 87th Street","W 86th Street","Manhattan","CITY",,,,,"10024","107","6",
"991514.0000000","226947.0000000","Mobilitie I","Amsterdam Avenue","W 89th Street","W 88th Street","Manhattan","CITY",,,,,"10024","107","6",
"990353.0000000","227596.0000000","ExteNet I","W 89 ST","RIVERSIDE DR","WEST END AV","Manhattan","CITY",,"Riverside-West End Historic District",,,"10024","107","6",
"990060.0000000","226559.0000000","ExteNet I","W85 ST","WEST END AV","RIVERSIDE DR","Manhattan","CITY",,"Riverside-West End Historic District Extension I",,,"10024","107","6",
"989957.0000000","226272.0000000","ExteNet I","W84 ST","RIVERSIDE DR","WEST END AV","Manhattan","CITY",,"Riverside-West End Historic District Extension I",,,"10024","107","6",
"990752.0000000","227969.0000000","ExteNet I","W 91 ST","RIVERSIDE DR","WEST END AV","Manhattan","CITY",,"Riverside-West End Historic District",,,"10024","107","6",
"992196.0000000","227178.0000000","ExteNet I","W 91 ST","AMSTERDAM AV","COLUMBUS AVE","Manhattan","CITY",,,,,"10024","107","6",
"993339.0000000","226531.0000000","ExteNet I","CENTRAL PARK WEST","W 90 ST","W 91 ST","Manhattan","CITY",,"Upper West Side/Central Park West Historic District",,,"10024","107","6",
"990286.0000000","227080.0000000","ExteNet I","W 87 ST","WEST END AV","RIVERSIDE DR","Manhattan","CITY",,"Riverside-West End Historic District",,,"10024","107","6",
"989869.0000000","225702.0000000","ExteNet I","WEST END AV","W 82 ST","W 81 ST","Manhattan","CITY",,"Riverside-West End Historic District Extension I",,,"10024","107","6",
"990609.0000000","225908.0000000","ExteNet I","W 84 ST","BROADWAY","AMSTERDAM AV","Manhattan","CITY",,,,,"10024","107","6",
"991263.0000000","226485.0000000","ExteNet I","AMSTERDAM AV","W 87 ST","W 86 ST","Manhattan","CITY",,,,,"10024","107","6",
"989105.0000000","224930.0000000","ExteNet I","W 78 ST","RIVERSIDE DR","WEST END AV","Manhattan","CITY",,"West End-Collegiate Historic District Extension",,,"10024","107","6",
"992196.0000000","225033.0000000","ExteNet I","W 84 ST","CENTRAL PK W","COLUMBUS AV","Manhattan","CITY",,"Upper West Side/Central Park West Historic District",,,"10024","107","6",
"990372.0000000","223881.0000000","ExteNet I","W 77 ST","COLUMBUS AV","AMSTERDAM AV","Manhattan","CITY","Columbus Avenue BID","Upper West Side/Central Park West Historic District",,"M S 245 THE COMPUTER SCHOOL","10024","107","6",
"992332.0000000","226560.0000000","ExteNet I","COLUMBUS AV","W 89 ST","W 90 ST","Manhattan","CITY",,,,,"10024","107","6",
"992621.0000000","226683.0000000","ExteNet I","W 90 ST","COLUMBUS AV","CENTRAL PK W","Manhattan","CITY",,,,,"10024","107","6",
"993090.0000000","226075.0000000","ExteNet I","CENTRAL PARK WEST","W 89 ST","W 88 ST","Manhattan","CITY",,"Upper West Side/Central Park West Historic District",,,"10024","107","6",
"991803.0000000","225607.0000000","ExteNet I","COLUMBUS AV","W 85 ST","W 86 ST","Manhattan","CITY",,"Upper West Side/Central Park West Historic District",,,"10024","107","6",
"989881.0000000","227466.0000000","ExteNet I","RIVERSIDE DR","W 87 ST","W 88 ST","Manhattan","CITY",,,"Riverside Park",,"10024","107","6","Riverside Park and Riverside Drive"
"991100.0000000","227172.0000000","ExteNet I","BROADWAY","W 89 ST","W 88 ST","Manhattan","CITY",,,,,"10024","107","6",
"990715.0000000","226538.0000000","ExteNet I","W 86 ST","BROADWAY","WEST END AV","Manhattan","CITY",,,,,"10024","107","6",
"992360.0000000","225628.0000000","ExteNet I","W 86 ST","COLUMBUS AV","CENTRAL PK W","Manhattan","CITY",,"Upper West Side/Central Park West Historic District",,,"10024","107","6",
"989495.0000000","226276.0000000","ExteNet I","RIVERSIDE DR","W 83 ST","W 84 ST","Manhattan","CITY",,"Riverside-West End Historic District Extension I",,,"10024","107","6",
"990347.0000000","224836.0000000","ExteNet I","AMSTERDAM AV","W 80 ST","W 79 ST","Manhattan","CITY",,"Upper West Side/Central Park West Historic District",,,"10024","107","6",
"991280.0000000","225540.0000000","ExteNet I","W 84 ST","AMSTERDAM AV","COLUMBUS AV","Manhattan","CITY",,,,"M 9","10024","107","6",
"988587.0000000","224621.0000000","ExteNet I","RIVERSIDE DR","W 76 ST","W 77 ST","Manhattan","CITY",,"West End - Collegiate Historic District",,,"10024","107","6","Riverside Park and Riverside Drive"
"990298.0000000","227833.0000000","ExteNet I","RIVERSIDE DR","W 90 ST","W 89 ST","Manhattan","CITY",,,"Riverside Park",,"10024","107","6","Riverside Park and Riverside Drive"
"989920.0000000","226900.0000000","ExteNet I","W 86 ST","RIVERSIDE DR","WEST END AV","Manhattan","CITY",,"Riverside-West End Historic District Extension I",,,"10024","107","6",
"990988.0000000","225993.0000000","ExteNet I","AMSTERDAM AV","W 85 ST","W 84 ST","Manhattan","CITY",,,,,"10024","107","6",
"991562.0000000","226066.0000000","ExteNet I","W 86 ST","AMSTERDAM AV","COLUMBUS AV","Manhattan","CITY",,,,,"10024","107","6",
"990604.0000000","225300.0000000","ExteNet I","AMSTERDAM AV","W 82 ST","W 81 ST","Manhattan","CITY",,"Upper West Side/Central Park West Historic District",,,"10024","107","6",
"992467.0000000","225227.0000000","ExteNet I","W 85 ST","CENTRAL PK W","COLUMBUS AV","Manhattan","CITY",,"Upper West Side/Central Park West Historic District",,,"10024","107","6",
"989053.0000000","224611.0000000","ExteNet I","W 77 ST","WEST END AVENUE","RIVERSIDE DR","Manhattan","CITY",,"West End - Collegiate Historic District",,,"10024","107","6",
"991910.0000000","224250.0000000","ExteNet I","W 81 ST","CENTRAL PK W","COLUMBUS AV","Manhattan","CITY","Columbus Avenue BID","Upper West Side/Central Park West Historic District",,,"10024","107","6",
"989416.0000000","225021.0000000","ExteNet I","WEST END AVE","W 79 ST","W 78 ST","Manhattan","CITY",,"West End-Collegiate Historic District Extension",,,"10024","107","6",
"990072.0000000","224340.0000000","ExteNet I","AMSTERDAM AV","W 78 ST","W 77 ST","Manhattan","CITY",,,,,"10024","107","6",
"993143.0000000","231288.0000000","ZenFi","Broadway","West 106th Street","West 107th Street","Manhattan","CITY",,,"Broadway Malls",,"10025","107","6",
"990799.0000000","228421.0000000","Extenet II","Riverside Dr","W 92ND ST","W 93RD ST","Manhattan","CITY",,"Riverside-West End Historic District",,,"10025","107","6",
"991546.0000000","228726.0000000","Crown Castle NG","West End Ave","W 95th St","W 94th St","Manhattan","CITY",,"Riverside-West End Historic District Extension II",,,"10025","107","6",
"993037.0000000","232187.0000000","ExteNet I","W 109 ST","RIVERSIDE DR","WEST END AVE","Manhattan","CITY",,,,,"10025","107","6",
"992829.0000000","230802.0000000","ExteNet I","W 104 ST","WEST END AVE","BROADWAY","Manhattan","CITY",,"Riverside-West End Historic District Extension II",,,"10025","107","6",
"992576.0000000","230585.0000000","ExteNet I","WEST END AV","W 103 ST","W 102 ST","Manhattan","CITY",,"Riverside-West End Historic District Extension II",,,"10025","107","6",
"991942.0000000","230354.0000000","ExteNet I","W 101 ST","RIVERSIDE DR","WEST END AVE","Manhattan","CITY",,"Riverside-West End Historic District Extension II",,,"10025","107","6",
"991916.0000000","229521.0000000","ExteNet I","WEST END AV","W 98 ST","W 99 ST","Manhattan","CITY",,"Riverside-West End Historic District Extension II",,,"10025","107","6",
"992033.0000000","229104.0000000","ExteNet I","W 97 ST","WEST END AVE","BROADWAY","Manhattan","CITY",,,,,"10025","107","6",
"992160.0000000","230574.0000000","ExteNet I","W 102 ST","RIVERSIDE DR","WEST END AVE","Manhattan","CITY",,"Riverside-West End Historic District Extension II",,,"10025","107","6",
"992200.0000000","229897.0000000","ExteNet I","WEST END AV","W 100 ST","W 99 ST","Manhattan","CITY",,"Riverside-West End Historic District Extension II",,,"10025","107","6",
"991186.0000000","228975.0000000","ExteNet I","W 95 ST","RIVERSIDE DR","WEST END AV","Manhattan","CITY",,,,,"10025","107","6",
"992649.0000000","227826.0000000","ExteNet I","W 94 ST","COLUMBUS AV","AMSTERDAM AV","Manhattan","CITY",,,,,"10025","107","6",
"991293.0000000","228017.0000000","ExteNet I","W 92 ST","WEST END AV","BROADWAY","Manhattan","CITY",,"Riverside-West End Historic District",,,"10025","107","6",
"992275.0000000","228315.0000000","ExteNet I","AMSTERDAM AV","E 95 ST","S 94 ST","Manhattan","CITY",,,,,"10025","107","6",
"991134.0000000","228359.0000000","ExteNet I","W 93 ST","WEST END AV","RIVERSIDE DR","Manhattan","CITY",,"Riverside-West End Historic District",,,"10025","107","6",
"992064.0000000","228187.0000000","ExteNet I","W 94 ST","AMSTERDAM AV","BROADWAY","Manhattan","CITY",,,,,"10025","107","6",
"991810.0000000","227731.0000000","ExteNet I","W 92 ST","AMSTERDAM AV","BROADWAY","Manhattan","CITY",,,,,"10025","107","6",
"992048.0000000","228763.0000000","ExteNet I","BROADWAY","W 96 ST","W 95 ST","Manhattan","CITY",,,"Broadway Malls",,"10025","107","6",
"991606.0000000","228086.0000000","ExteNet I","BROADWAY","W 93 ST","W 92 ST","Manhattan","CITY",,,,,"10025","107","6",
"992821.0000000","228324.0000000","ExteNet I","W 96 ST","AMSTERDAM AV","COLUMBUS AV","Manhattan","CITY",,,,,"10025","107","6",
"993422.0000000","228000.0000000","ExteNet I","W 96 ST","COLUMBUS AV","CENTRAL PK W","Manhattan","CITY",,,,,"10025","107","6",
"992020.0000000","227859.0000000","ExteNet I","AMSTERDAM AV","W 93 ST","W 92 ST","Manhattan","CITY",,,,,"10025","107","6",
"991422.0000000","227657.0000000","ExteNet I","BROADWAY","W 91 ST","W 92 ST","Manhattan","CITY",,,"Broadway Malls",,"10025","107","6",
"989498.0000000","221307.0000000","Mobilitie II","Columbus Avenue","W 67th Street","W 66th Street","Manhattan","CITY","Lincoln Square BID",,,,"10023","107","6",
"989248.0000000","220250.0000000","Mobilitie I","Broadway","W 63rd Street","W 62nd Street","Manhattan","CITY","Lincoln Square BID",,,,"10023","107","6",
"987300.0000000","220790.0000000","Crown Castle Fiber","W 61st St","West End Ave","Amsterdam Ave","Manhattan","CITY",,,,,"10023","107","6",
"990648.0000000","222818.0000000","ExteNet I","W 74 ST","COLUMBUS AV","CENTRAL PK W","Manhattan","CITY",,"Central Park West - West 73rd - 74th Street Historic District,Upper West Side/Central Park West Historic District",,,"10023","107","6",
"989081.0000000","224280.0000000","ExteNet I","WEST END AV","W 76 ST","W 75 ST","Manhattan","CITY",,"West End-Collegiate Historic District Extension",,,"10023","107","6",
"990117.0000000","223158.0000000","ExteNet I","W 74 ST","COLUMBUS AV","AMSTERDAM AV","Manhattan","CITY",,"Upper West Side/Central Park West Historic District",,,"10023","107","6",
"990274.0000000","222717.0000000","ExteNet I","COLUMBUS AV","W 73 ST","W 72 ST","Manhattan","CITY","Columbus Avenue BID","Upper West Side/Central Park West Historic District",,,"10023","107","6",
"988809.0000000","222930.0000000","ExteNet I","W 71 ST","BROADWAY","WEST END AV","Manhattan","CITY",,"West End-Collegiate Historic District Extension",,,"10023","107","6",
"988924.0000000","223126.0000000","ExteNet I","W 72 ST","BROADWAY","WEST END AV","Manhattan","CITY",,"West End-Collegiate Historic District Extension",,,"10023","107","6",
"988289.0000000","222837.0000000","ExteNet I","WEST END AVE","W 70 ST","W 69 ST","Manhattan","CITY",,,,,"10023","107","6",
"988004.0000000","223330.0000000","ExteNet I","W 71 ST","RIVERSIDE BLVD","WEST END AV","Manhattan","CITY",,"West End-Collegiate Historic District Extension",,,"10023","107","6",
"991031.0000000","222362.0000000","ExteNet I","CENTRAL PARK WEST","W 73 ST","W 74 ST","Manhattan","CITY",,"Central Park West - West 73rd - 74th Street Historic District,Upper West Side/Central Park West Historic District",,,"10023","107","6",
"989515.0000000","223203.0000000","ExteNet I","AMSTERDAM AV","W 73 ST","W 74 ST","Manhattan","CITY",,"Upper West Side/Central Park West Historic District",,,"10023","107","6",
"989901.0000000","222045.0000000","ExteNet I","COLUMBUS AV","W 70 ST","W 71 ST","Manhattan","CITY","Columbus Avenue BID","Upper West Side/Central Park West Historic District",,,"10023","107","6",
"989201.0000000","222437.0000000","ExteNet I","BROADWAY","W 70 ST","W 71 ST","Manhattan","CITY",,,"Broadway Malls",,"10023","107","6",
"987155.0000000","221488.0000000","Mobilitie I","Thelonius Monk Circle","W 63rd Street","W 64th Street","Manhattan","CITY",,,,,"10069","107","6",
"987453.0000000","222154.0000000","ExteNet I","W 66TH ST","RIVERSIDE BLVD.","FREEDOM PL","Manhattan","CITY",,,,,"10069","107","6",
"1019081.0000000","258980.0000000","ZenFi","Hull Ave","E 209th St","E Gun Hill Rd","Bronx","UTILITY",,,,,"10467","207","11",
"1018125.0000000","260199.0000000","ZenFi","Wayne Av","E Gun Hill Rd","E 211th St","Bronx","UTILITY","Jerome-Gun Hill BID",,,,"10467","207","11",
"1017134.0000000","259249.0000000","ZenFi","E 208th St","Steuben Ave","Rochambeau Ave","Bronx","UTILITY",,,,,"10467","207","11",
"1018238.0000000","258316.0000000","ZenFi","E 207th St","Perry Ave","Bainbridge Ave","Bronx","UTILITY",,,,,"10467","207","11",
"1018854.0000000","258080.0000000","ZenFi","E 207th St","Decatur Ave","Hull Ave","Bronx","UTILITY",,,,,"10467","207","11",
"1016991.0000000","258476.0000000","ZenFi","Van Cortlandt Avenue East","East Mosholu Parkway N","Mosholu Parkway","Bronx","CITY",,,"Mosholu Parkway",,"10467","207","11",
"1017339.0000000","256739.0000000","ZenFi","Hull Avenue","East Mosholu Parkway N","Mosholu Parkway","Bronx","CITY",,,"Mosholu Parkway",,"10467","207","11",
"1017468.0000000","256015.0000000","ZenFi","Webster Avenue","East Mosholu Parkway N","Botanical Square N","Bronx","CITY",,,,,"10467","207","11",
"1017736.0000000","257309.0000000","ZenFi","Perry Avenue","East 204th Street","East Mosholu Parkway North","Bronx","CITY",,,,,"10467","207","11",
"1019270.0000000","259525.0000000","ZenFi","East Gun Hill Road","Hull Avenue","Decatur Avenue","Bronx","CITY","Jerome-Gun Hill BID",,,,"10467","207","11",
"1017549.0000000","258732.0000000","ZenFi","Bainbridge Avenue","Reservoir Oval East","East 207th Street","Bronx","CITY",,,,,"10467","207","11",
"1017606.0000000","260423.0000000","Crown Castle Solutions","E Gun Hill Rd","Rochambeau Ave","Bainbridge Ave","Bronx","CITY","Jerome-Gun Hill BID",,,,"10467","207","11",
"1018714.0000000","259799.0000000","Crown Castle Solutions","E Gun Hill Rd","Putnam Pl","Kings College Pl","Bronx","CITY","Jerome-Gun Hill BID",,,,"10467","207","11",
"1016836.0000000","259720.0000000","Crown Castle Solutions","E 208th St","Kossuth Ave","E 210th St","Bronx","CITY",,,,,"10467","207","11",
"1019375.0000000","259940.0000000","Crown Castle Solutions","E 211th St","Hull Ave","Decatur Ave","Bronx","CITY",,,,,"10467","207","11",
"1018449.0000000","258307.0000000","Extenet II","Perry Ave","E 207th St","E 209th St","Bronx","UTILITY",,,,,"10467","207","11",
"1018535.0000000","259913.0000000","Mobilitie I","E Gun Hill Road","King College Place","Tryon Avenue","Bronx","CITY","Jerome-Gun Hill BID",,,,"10467","207","11",
"1017316.0000000","259210.0000000","Mobilitie I","Rochambeau Avenue","E 208th Street","E 210th Street","Bronx","CITY",,,,,"10467","207","11",
"1018768.0000000","258875.0000000","Crown Castle NG","E 209th St","Perry Ave","Hull Ave","Bronx","UTILITY",,,,,"10467","207","11",
"1019187.0000000","259370.0000000","Crown Castle NG","Hull Ave","E Gun Hill Rd","E 209th Street","Bronx","UTILITY","Jerome-Gun Hill BID",,,,"10467","207","11",
"1018991.0000000","258710.0000000","Mobilitie II","E 209th St","Hull Ave","Decatur Ave","Bronx","CITY",,,,,"10467","207","11",
"1017412.0000000","259812.0000000","Mobilitie II","E 210th St","Rochambeau Ave","Steuben Ave","Bronx","CITY",,,,,"10467","207","11",
"1017703.0000000","261335.0000000","Mobilitie II","E 212th St","Dekalb Ave","Rochambeau Ave","Bronx","CITY",,,,,"10467","207","11",
"1015273.0000000","258880.0000000","ZenFi","Jerome Ave","Van Courtland Rd","Risse St","Bronx","CITY",,,,,"10468","207","11",
"1015472.0000000","258401.0000000","ZenFi","Villa Ave","E 205th St","Van Cortlandt Ave","Bronx","UTILITY",,,,,"10468","207","11",
"1014798.0000000","257483.0000000","ZenFi","Jerome Avenue","Bedford Park Boulevard","Paul Avenue","Bronx","CITY",,,,,"10468","207","11",
"1015768.0000000","260031.0000000","ZenFi","West Mosholu Parkway South","Paul Avenue","Jerome Avenue","Bronx","CITY",,,,,"10468","207","11",
"1015871.0000000","259330.0000000","ZenFi","Risse Street","Jerome Avenue","Van Cortlandt Avenue East","Bronx","CITY",,,,,"10468","207","11",
"1015099.0000000","256959.0000000","ExteNet I","Grand Concourse","Bedford Park Blvd","E 199th St","Bronx","CITY",,,,,"10468","207","11",
"1015037.0000000","257949.0000000","Mobilitie I","Jerome Ave","E 204th St","Bedford Park Blvd","Bronx","UTILITY",,,,,"10468","207","11",
"1016006.0000000","258200.0000000","ZenFi","E 205th St","Grand Concourse","Lisbon Pl","Bronx","CITY",,,,,"10458","207","11",
"1016428.0000000","258670.0000000","ZenFi","East Mosholu Parkway South","Van Cortlandt Avenue East","Bainbridge Avenue","Bronx","CITY",,,"Mosholu Parkway",,"10458","207","11",
"1015652.0000000","257909.0000000","ZenFi","Grand Concourse","East 204th Street","East 203rd Street","Bronx","CITY",,,,,"10458","207","11",
"1016694.0000000","256223.0000000","Crown Castle Solutions","Mariohn Ave","E 201st St","E Mosholu Pkwy S","Bronx","CITY",,,,,"10458","207","11",
"1015953.0000000","257364.0000000","Crown Castle Solutions","Valentine Ave","E 202nd St","E 203rd St","Bronx","CITY",,,,,"10458","207","11",
"1016392.0000000","256026.0000000","ExteNet I","Marion Ave","Bedford Park Blvd","E 201st St","Bronx","CITY",,,,,"10458","207","11",
"1016781.0000000","257020.0000000","Mobilitie II","E Mosholu Parkway S","Bainbridge Ave","Perry Ave","Bronx","CITY",,,"Mosholu Parkway",,"10458","207","11",
"1015877.0000000","257126.0000000","Mobilitie II","Valentine Ave","E 201st St","E 202nd St","Bronx","CITY",,,,,"10458","207","11",
"1011284.0000000","266057.0000000","ZenFi","Fieldston Road","West 250th Street","West 253rd Street","Bronx","UTILITY",,"Fieldston Historic District",,,"10471","208","11",
"1011245.0000000","263967.0000000","ZenFi","Waldo Ave","W 244th St","W 245th St","Bronx","UTILITY",,"Fieldston Historic District",,,"10471","208","11",
"1012639.0000000","269051.0000000","ZenFi","Mosholu Ave","Post Rd","Broadway","Bronx","UTILITY",,,,,"10471","208","11",
"1010079.0000000","270008.0000000","ZenFi","Arlington Avenue","West 259th Street","Independence Avenue","Bronx","CITY",,,,,"10471","208","11",
"1012804.0000000","269950.0000000","ZenFi","Broadway","West 260th Street","West 261st Street","Bronx","CITY",,,,,"10471","208","11",
"1012654.0000000","266703.0000000","ExteNet I","Broadway","Lakeview Pl","Post Rd","Bronx","CITY",,,,,"10471","208","11",
"1009528.0000000","264744.0000000","ExteNet I","Henry Hudson Pkwy","W 246th St","Manhattan College Pkwy","Bronx","CITY",,,"GREENSTREET",,"10471","208","11",
"1012836.0000000","269101.0000000","Mobilitie II","Broadway","David Sheridan Plaza","W 259th St","Bronx","CITY",,,,,"10471","208","11",
"1008330.0000000","263707.0000000","Mobilitie II","Independence Ave","W 239th St","W 246th St","Bronx","CITY",,,,,"10471","208","11",
"1011327.0000000","261496.0000000","ZenFi","Kingsbridge Ave","W 236th St","W 237th St","Bronx","UTILITY",,,,,"10463","208","11",
"1012406.0000000","259888.0000000","ZenFi","Cannon Pl","Giles Pl","W 238th St","Bronx","UTILITY",,,,,"10463","208","11",
"1008532.0000000","259683.0000000","ZenFi","Irwin Av","Johnson Av","W 230 St","Bronx","UTILITY",,,,"PS X37 MULTIPLE INTELL SCHOOL","10463","208","11",
"1009494.0000000","259678.0000000","Extenet II","Corlear Ave","W230th St","W231st St","Bronx","UTILITY",,,,,"10463","208","11",
"1012419.0000000","260820.0000000","ZenFi","Fort Independence St","Orloff Ave","Bailey Ave","Bronx","UTILITY",,,,,"10463","208","11",
"1012020.0000000","263419.0000000","ExteNet I","W 242nd St","Manhattan College Pkwy","Broadway","Bronx","CITY",,,,,"10463","208","11",
"1012706.0000000","262065.0000000","ExteNet I","Van Cortlandt Park S","Median of Maj Deegan Expwy On Ramp","Putnam Ave W","Bronx","CITY",,,,,"10463","208","11",
"1008601.0000000","262114.0000000","Crown Castle Solutions","W 235th St","Arlington Ave","Henry Hudson Pkwy E","Bronx","CITY",,,,,"10463","208","11",
"1010991.0000000","262288.0000000","Crown Castle NG","W 238th St","Irwin Ave","Dead End","Bronx","UTILITY",,,,,"10463","208","11",
"1008790.0000000","260540.0000000","Crown Castle NG","Johnson Ave","W 231st St","W 230th St","Bronx","UTILITY",,,,,"10463","208","11",
"1007375.0000000","260225.0000000","Mobilitie I","W 227th St","Fairfield Ave","Henry Hudson Pkwy E","Bronx","UTILITY",,,,,"10463","208","11",
"1007573.0000000","261178.0000000","Mobilitie II","Henry Hudson Parkway","W 231st St","W 227th St","Bronx","CITY",,,,,"10463","208","11",
"1012982.0000000","257406.0000000","Mobilitie II","Goulden Ave","Bedford Park Blvd W","W 197th St","Bronx","CITY",,,,,"10468","208","11",
"1020886.0000000","266584.0000000","ZenFi","E 236th Street","Katonah Ave","Kepler Ave","Bronx","UTILITY",,,,,"10470","212","11",
"1019608.0000000","266906.0000000","ZenFi","E 238 St","Oneida Ave","Kepler Ave","Bronx","UTILITY",,,,,"10470","212","11",
"1021854.0000000","266435.0000000","Extenet II","E 235th ST","Viereo ave","Webster ave","Bronx","UTILITY",,,,,"10470","212","11",
"1021497.0000000","267128.0000000","Mobilitie I","Martha Av","E 238th St","E 237th St","Bronx","UTILITY",,,,,"10470","212","11",
"1023435.0000000","265855.0000000","Mobilitie I","E 236th St","Matilda Ave","Carpenter Ave","Bronx","UTILITY",,,,,"10466","212","11",
"1020020.0000000","259305.0000000","ExteNet I","E Gun Hill Rd","Bronx River Pkwy Exit","Webster Ave","Bronx","CITY",,,,,"10467","212","11",
"1018488.0000000","260593.0000000","Mobilitie I","E 211th St","Tryon Ave","Kings College Place","Bronx","UTILITY",,,,,"10467","212","11",
"1005806.0000000","248160.0000000","ZenFi","Popham Avenue","West 174th Street","West 175th Street","Bronx","CITY",,,,,"10453","205","16",
"1005611.0000000","248327.0000000","ZenFi","Undercliff Avenue","Sedgwick Avenue","Boscobel Place","Bronx","CITY",,,,,"10453","205","16",
"1005359.0000000","248451.0000000","Crown Castle NG","Sedgwick Ave","Roberto Clemente State Park Bridge","Undercliff Ave","Bronx","UTILITY",,,,,"10453","205","16",
"1006798.0000000","250571.0000000","Crown Castle NG","Cedar Ave","W Tremont Ave","W 179th St","Bronx","UTILITY",,,,,"10453","205","16",
"1006500.0000000","249912.0000000","Crown Castle NG","Sedgwick Ave","Undercliff Ave","Cedar Ave","Bronx","UTILITY",,,,,"10453","205","16",
"1007148.0000000","251070.0000000","Crown Castle NG","Cedar Ave","W 179th St","W Tremont Ave","Bronx","UTILITY",,,"Cedar Playground",,"10453","205","16",
"1012360.0000000","245568.0000000","ZenFi","E 173 St","Fulton Ave","Third Ave","Bronx","UTILITY",,,,,"10457","203","16",
"1011538.0000000","245810.0000000","ZenFi","Washington Ave","E 173 St","E 172 St","Bronx","UTILITY",,,,,"10457","203","16",
"1011887.0000000","244440.0000000","ZenFi","Fulton Avenue","Claremont Parkway","East 171st Street","Bronx","CITY",,,,,"10457","203","16",
"1010509.0000000","244721.0000000","Mobilitie II","Brook Ave","E 171st St","Claremont Parkway","Bronx","CITY",,,,"ICAHN CHARTER MIDDLE SCHOOL","10457","203","16",
"1011470.0000000","243688.0000000","ZenFi","St Pauls Place","Fulton Ave","Crotona Pl","Bronx","UTILITY",,,,,"10456","203","16",
"1010575.0000000","240109.0000000","ZenFi","Trinity Ave","E 165th St","E 163rd St","Bronx","UTILITY",,,,,"10456","203","16",
"1011144.0000000","243802.0000000","Crown Castle NG","St Pauls Pl","Third Ave","Fulton Ave","Bronx","UTILITY",,,,,"10456","203","16",
"1012822.0000000","242862.0000000","ZenFi","Boston Rd","E 170 St","Prospect Ave","Bronx","UTILITY",,,,,"10456","203","16",
"1011391.0000000","244246.0000000","ZenFi","Third Avenue","East 171st Street","St. Paul's Place","Bronx","CITY",,,,,"10456","203","16",
"1010867.0000000","243495.0000000","ZenFi","East 170th Street","Third Avenue","Washington Avenue","Bronx","CITY",,,,,"10456","203","16",
"1010572.0000000","242687.0000000","ZenFi","3rd Avenue","East 169th Street","East 170th Street","Bronx","CITY",,,,"IS 219","10456","203","16",
"1010040.0000000","239388.0000000","ZenFi","East 163rd Street","Cauldwell Avenue","Boston Road","Bronx","CITY",,,,,"10456","203","16",
"1010415.0000000","243042.0000000","Crown Castle Solutions","Washington Ave","E 169th St","E 170th St","Bronx","CITY",,,,,"10456","203","16",
"1010445.0000000","240506.0000000","ExteNet I","Cauldwell Ave","Boston Rd","E 165th St","Bronx","CITY",,,,,"10456","203","16",
"1010479.0000000","239586.0000000","ExteNet I","Trinity Ave","E 163rd St","E 165th St","Bronx","CITY",,,,,"10456","203","16",
"1010480.0000000","244080.0000000","ExteNet I","Park Ave","St Pauls Pl","E 171st St","Bronx","CITY",,,,,"10456","203","16",
"1010858.0000000","238495.0000000","Mobilitie I","Tinton Avenue","E 161st Street","E 163rd Street","Bronx","CITY",,,,,"10456","203","16",
"1011254.0000000","244022.0000000","Extenet II","3rd Ave","E 171th st","E 170th st","Bronx","UTILITY",,,,,"10456","203","16",
"1012233.0000000","243122.0000000","Mobilitie II","Clinton Ave","E 170th St","Crotona Park S","Bronx","CITY",,,,,"10456","203","16",
"1011445.0000000","242307.0000000","Mobilitie II","E 169th St","Franklin Ave","Clinton Ave","Bronx","CITY",,,,,"10456","203","16",
"1010915.0000000","241773.0000000","Mobilitie II","Franklin Ave","E 168th St","E 167th St","Bronx","CITY",,,,,"10456","203","16",
"1010067.0000000","242213.0000000","Mobilitie II","Washington Ave","E 168th St","E 169th St","Bronx","CITY",,,,,"10456","203","16",
"1012789.0000000","242371.0000000","ZenFi","Prospect Avenue","Jennings Street","Ritter Place","Bronx","CITY",,,,"PUBLIC SCHOOL 186","10459","203","16",
"1013094.0000000","242413.0000000","Mobilitie II","Jennings St","Chisholm St","Bristow St","Bronx","CITY",,,,,"10459","203","16",
"1008943.0000000","246327.0000000","ZenFi","Mount Eden Pkwy EB","Sheridan Av","Selwyn Av","Bronx","CITY",,,,,"10457","204","16",
"1009006.0000000","245853.0000000","ZenFi","Selwyn Avenue","Mount Eden Parkway","East 172nd Street","Bronx","CITY",,,,,"10457","204","16",
"1008808.0000000","245867.0000000","ZenFi","Sheridan Avenue","East 172nd Street","Mount Eden Parkway","Bronx","CITY",,,,,"10457","204","16",
"1010584.0000000","246523.0000000","Crown Castle Fiber","E 173rd St","Clay Ave","Anthony Ave","Bronx","CITY",,,"Barry Plaza",,"10457","204","16",
"1009395.0000000","244256.0000000","Crown Castle Solutions","E 170th St","Teller Ave","Clay Ave","Bronx","CITY",,,"Claremont Park",,"10457","204","16",
"1008740.0000000","245507.0000000","Mobilitie II","Sheridan Ave","E 172nd St","E 171st St","Bronx","CITY",,,,"WILLIAMS HOWARD TAFT HS HISTORICAL","10457","204","16",
"1010579.0000000","245707.0000000","Mobilitie II","Webster Ave","Clay Ave","Belmont Ave","Bronx","CITY",,,,,"10457","204","16",
"1006158.0000000","246298.0000000","ZenFi","Shakespeare Ave","Sherif S Byrd Pl (Jesup Pl)","W 172nd Street","Bronx","UTILITY",,,,,"10452","204","16",
"1006299.0000000","242937.0000000","ZenFi","Walton Ave","Mc Clellan St","E 166th St","Bronx","CITY",,"Grand Concourse Historic District",,,"10452","204","16",
"1004690.0000000","246100.0000000","ZenFi","E 170th St","University Ave","Merriam Ave","Bronx","UTILITY",,,,,"10452","204","16",
"1007066.0000000","244456.0000000","ZenFi","Walton Ave","E Clarke Pl","E 169th St","Bronx","UTILITY",,,,,"10452","204","16",
"1004381.0000000","244267.0000000","Crown Castle NG","W 167th St","Ogden Ave","Dr Martin Luther King Jr Blvd","Bronx","UTILITY",,,,,"10452","204","16",
"1006347.0000000","246694.0000000","ZenFi","W 172 St","Shakespeare Ave","Nelson Ave","Bronx","UTILITY",,,"West Bronx Recreation Center",,"10452","204","16",
"1005698.0000000","245075.0000000","ZenFi","Shakespeare Ave","W 169 St","W 170 St","Bronx","UTILITY",,,,,"10452","204","16",
"1006088.0000000","244646.0000000","ZenFi","W 169 St","Cromwell Ave","Inwood Ave","Bronx","UTILITY",,,,,"10452","204","16",
"1007079.0000000","243938.0000000","ZenFi","East 168th Street","Grand View Place","Walton Avenue","Bronx","CITY",,,,,"10452","204","16",
"1005560.0000000","246286.0000000","ZenFi","Edward L Grant Highway","Plimpton Avenue","Ogden Avenue","Bronx","CITY",,,,,"10452","204","16",
"1005467.0000000","245588.0000000","ZenFi","Nelson Avenue","West 170th Street","West 169th Street","Bronx","CITY",,,,,"10452","204","16",
"1004565.0000000","242072.0000000","ZenFi","Jerome Avenue","East 164th Street","East 161st Street","Bronx","CITY",,,"Macombs Dam Park",,"10452","204","16",
"1004707.0000000","240997.0000000","ZenFi","161st Street","River Avenue","Macombs Dam Bridge","Bronx","CITY",,,"Macombs Dam Park",,"10452","204","16",
"1007003.0000000","243742.0000000","Crown Castle Fiber","Grandview Pl","E 168th St","E 167th St","Bronx","CITY",,,,,"10452","204","16",
"1006287.0000000","243684.0000000","Crown Castle Fiber","E 167th St","Gerard Ave","River Ave","Bronx","CITY",,,,,"10452","204","16",
"1006298.0000000","242472.0000000","Crown Castle Solutions","E 166th St","Grand Concourse","Walton Ave","Bronx","CITY",,"Grand Concourse Historic District",,,"10452","204","16",
"1006140.0000000","246821.0000000","Crown Castle Solutions","Nelson Ave","Plimpton Ave","Cross Bronx Expy Service Road","Bronx","CITY",,,,,"10452","204","16",
"1006239.0000000","246361.0000000","Crown Castle Solutions","Shakespeare Ave","Sheriff S Byrd Place","W 172nd St","Bronx","CITY",,,,,"10452","204","16",
"1005250.0000000","246190.0000000","Crown Castle Solutions","Ogden Ave","W 171st St","W 170th St","Bronx","CITY",,,,,"10452","204","16",
"1005057.0000000","244746.0000000","Crown Castle Solutions","Nelson Ave","W 168th St","W 169th St","Bronx","CITY",,,,,"10452","204","16",
"1004926.0000000","243443.0000000","Crown Castle Solutions","Anderson Ave","W 166th St","W 167th St","Bronx","CITY",,,,,"10452","204","16",
"1005445.0000000","244054.0000000","Crown Castle Solutions","Shakespeare Ave","Anderson Ave","Jerome Ave","Bronx","CITY",,,,,"10452","204","16",
"1007384.0000000","246150.0000000","Crown Castle Solutions","Jerome Ave","E 172nd St","E 171st St","Bronx","CITY",,,,,"10452","204","16",
"1007885.0000000","245900.0000000","Crown Castle Solutions","Walton Ave","E 172nd St","E 171st St","Bronx","CITY",,,,,"10452","204","16",
"1004301.0000000","244498.0000000","Crown Castle Solutions","University Ave","W 167th St","W 168th St","Bronx","CITY",,,,,"10452","204","16",
"1005323.0000000","244123.0000000","Crown Castle Solutions","Anderson Ave","Shakespeare Ave","W 167th St","Bronx","CITY",,,,,"10452","204","16",
"1005870.0000000","243178.0000000","Crown Castle Solutions","McClellan St","River Ave","Gerard Ave","Bronx","CITY",,,,,"10452","204","16",
"1006475.0000000","242643.0000000","ExteNet I","Grand Concourse","McClellan St","E 166th St","Bronx","CITY",,"Grand Concourse Historic District",,,"10452","204","16",
"1006862.0000000","244045.0000000","ExteNet I","Walton Ave","E 168th St","E 169th St","Bronx","CITY",,,,,"10452","204","16",
"1006878.0000000","246414.0000000","Crown Castle NG","Cromwell Ave","Macombs Rd","E 170th St","Bronx","UTILITY",,,,,"10452","204","16",
"1006976.0000000","244321.0000000","Crown Castle NG","E 169th St","Walton Ave","Gerard Ave","Bronx","CITY",,,,,"10452","204","16",
"1006412.0000000","244867.0000000","Crown Castle NG","Inwood Ave","W Clarke Pl","W 170th St","Bronx","CITY",,,,,"10452","204","16",
"1004630.0000000","242161.0000000","Mobilitie II","E 164th St","Jerome Ave","River Ave","Bronx","CITY",,,"Macombs Dam Park",,"10452","204","16",
"1004244.0000000","243740.0000000","Mobilitie II","Ogden Ave","W 166th St","W 167th St","Bronx","CITY",,,,,"10452","204","16",
"1004906.0000000","245410.0000000","Mobilitie II","Ogden Ave","W 169th St","W 170th St","Bronx","CITY",,,"Mosaic Success Garden",,"10452","204","16",
"1005236.0000000","246262.0000000","Mobilitie II","Ogden Ave","W 171st St","Dr Martin Luther King Jr Blvd","Bronx","CITY",,,,,"10452","204","16",
